{"type":"FeatureCollection","metadata":{"generated":1786497424000,"url":"https://earthquake.usgs.gov/fdsnws/event/1/query?format=geojson&starttime=2026-08-05&minmagnitude=4.5","title":"USGS Earthquakes","status":200,"api":"2.7.0","count":109},"features":[{"type":"Feature","properties":{"mag":4.8,"place":"166 km SSW of Abepura, Indonesia","time":1786491195174,"updated":1786492242040,"tz":null,"url":"https://earthquake.usgs.gov/earthquakes/eventpage/us6000tk41","detail":"https://earthquake.usgs.gov/fdsnws/event/1/query?eventid=us6000tk41&format=geojson","felt":null,"cdi":null,"mmi":null,"alert":null,"status":"reviewed","tsunami":0,"sig":354,"net":"us","code":"6000tk41","ids":",us6000tk41,","sources":",us,","types":",origin,phase-data,","nst":23,"dmin":1.595,"rms":0.97,"gap":123,"magType":"mb","type":"earthquake","title":"M 4.8 - 166 km SSW of Abepura, Indonesia"},"geometry":{"type":"Point","coordinates":[140.0289,-3.971,37.029]},"id":"us6000tk41"},
{"type":"Feature","properties":{"mag":5,"place":"89 km ESE of Kokopo, Papua New Guinea","time":1786480288580,"updated":1786481268040,"tz":null,"url":"https://earthquake.usgs.gov/earthquakes/eventpage/us6000tk29","detail":"https://earthquake.usgs.gov/fdsnws/event/1/query?eventid=us6000tk29&format=geojson","felt":null,"cdi":null,"mmi":null,"alert":null,"status":"reviewed","tsunami":0,"sig":385,"net":"us","code":"6000tk29","ids":",usauto6000tk29,us6000tk29,","sources":",usauto,us,","types":",internal-moment-tensor,origin,phase-data,","nst":121,"dmin":0.975,"rms":1,"gap":80,"magType":"mww","type":"earthquake","title":"M 5.0 - 89 km ESE of Kokopo, Papua New Guinea"},"geometry":{"type":"Point","coordinates":[152.9875,-4.7193,68.887]},"id":"us6000tk29"},
{"type":"Feature","properties":{"mag":5.1,"place":"51 km E of Tobelo, Indonesia","time":1786479258452,"updated":1786480198040,"tz":null,"url":"https://earthquake.usgs.gov/earthquakes/eventpage/us6000tk1y","detail":"https://earthquake.usgs.gov/fdsnws/event/1/query?eventid=us6000tk1y&format=geojson","felt":null,"cdi":null,"mmi":null,"alert":null,"status":"reviewed","tsunami":0,"sig":400,"net":"us","code":"6000tk1y","ids":",us6000tk1y,","sources":",us,","types":",origin,phase-data,","nst":68,"dmin":5.945,"rms":0.97,"gap":103,"magType":"mb","type":"earthquake","title":"M 5.1 - 51 km E of Tobelo, Indonesia"},"geometry":{"type":"Point","coordinates":[128.4742,1.7064,10]},"id":"us6000tk1y"},
{"type":"Feature","properties":{"mag":4.9,"place":"149 km SSE of Port Blair, India","time":1786478141269,"updated":1786479155040,"tz":null,"url":"https://earthquake.usgs.gov/earthquakes/eventpage/us6000tk1m","detail":"https://earthquake.usgs.gov/fdsnws/event/1/query?eventid=us6000tk1m&format=geojson","felt":null,"cdi":null,"mmi":null,"alert":null,"status":"reviewed","tsunami":0,"sig":369,"net":"us","code":"6000tk1m","ids":",us6000tk1m,","sources":",us,","types":",origin,phase-data,","nst":67,"dmin":6.472,"rms":0.81,"gap":43,"magType":"mb","type":"earthquake","title":"M 4.9 - 149 km SSE of Port Blair, India"},"geometry":{"type":"Point","coordinates":[93.4884,10.5351,113.482]},"id":"us6000tk1m"},
{"type":"Feature","properties":{"mag":4.6,"place":"118 km ESE of Neiafu, Tonga","time":1786473919680,"updated":1786477899040,"tz":null,"url":"https://earthquake.usgs.gov/earthquakes/eventpage/us6000tk14","detail":"https://earthquake.usgs.gov/fdsnws/event/1/query?eventid=us6000tk14&format=geojson","felt":null,"cdi":null,"mmi":null,"alert":null,"status":"reviewed","tsunami":0,"sig":326,"net":"us","code":"6000tk14","ids":",us6000tk14,","sources":",us,","types":",origin,phase-data,","nst":23,"dmin":2.86,"rms":0.92,"gap":104,"magType":"mb","type":"earthquake","title":"M 4.6 - 118 km ESE of Neiafu, Tonga"},"geometry":{"type":"Point","coordinates":[-172.9513,-19.0842,10]},"id":"us6000tk14"},
{"type":"Feature","properties":{"mag":4.6,"place":"Western Australia","time":1786471825542,"updated":1786477015040,"tz":null,"url":"https://earthquake.usgs.gov/earthquakes/eventpage/us6000tk0u","detail":"https://earthquake.usgs.gov/fdsnws/event/1/query?eventid=us6000tk0u&format=geojson","felt":null,"cdi":null,"mmi":null,"alert":null,"status":"reviewed","tsunami":0,"sig":326,"net":"us","code":"6000tk0u","ids":",us6000tk0u,","sources":",us,","types":",origin,phase-data,","nst":39,"dmin":1.505,"rms":0.37,"gap":122,"magType":"mb","type":"earthquake","title":"M 4.6 - Western Australia"},"geometry":{"type":"Point","coordinates":[126.5708,-31.5799,10]},"id":"us6000tk0u"},
{"type":"Feature","properties":{"mag":4.6,"place":"7 km W of Lunca Jariștei, Romania","time":1786468875884,"updated":1786473927650,"tz":null,"url":"https://earthquake.usgs.gov/earthquakes/eventpage/us6000tk0c","detail":"https://earthquake.usgs.gov/fdsnws/event/1/query?eventid=us6000tk0c&format=geojson","felt":2,"cdi":2.2,"mmi":null,"alert":null,"status":"reviewed","tsunami":0,"sig":326,"net":"us","code":"6000tk0c","ids":",us6000tk0c,","sources":",us,","types":",dyfi,origin,phase-data,","nst":84,"dmin":1.901,"rms":0.91,"gap":34,"magType":"mb","type":"earthquake","title":"M 4.6 - 7 km W of Lunca Jariștei, Romania"},"geometry":{"type":"Point","coordinates":[26.1598,45.487,140.003]},"id":"us6000tk0c"},
{"type":"Feature","properties":{"mag":5,"place":"107 km WNW of Kerema, Papua New Guinea","time":1786467978902,"updated":1786469649040,"tz":null,"url":"https://earthquake.usgs.gov/earthquakes/eventpage/us6000tk0a","detail":"https://earthquake.usgs.gov/fdsnws/event/1/query?eventid=us6000tk0a&format=geojson","felt":null,"cdi":null,"mmi":null,"alert":null,"status":"reviewed","tsunami":0,"sig":385,"net":"us","code":"6000tk0a","ids":",us6000tk0a,","sources":",us,","types":",origin,phase-data,","nst":53,"dmin":2.877,"rms":0.89,"gap":98,"magType":"mb","type":"earthquake","title":"M 5.0 - 107 km WNW of Kerema, Papua New Guinea"},"geometry":{"type":"Point","coordinates":[144.8583,-7.6341,10]},"id":"us6000tk0a"},
{"type":"Feature","properties":{"mag":4.8,"place":"Pulau Pulau Tanimbar, Indonesia","time":1786452312884,"updated":1786455088040,"tz":null,"url":"https://earthquake.usgs.gov/earthquakes/eventpage/us6000tjxa","detail":"https://earthquake.usgs.gov/fdsnws/event/1/query?eventid=us6000tjxa&format=geojson","felt":null,"cdi":null,"mmi":null,"alert":null,"status":"reviewed","tsunami":0,"sig":354,"net":"us","code":"6000tjxa","ids":",us6000tjxa,","sources":",us,","types":",origin,phase-data,","nst":53,"dmin":2.897,"rms":0.74,"gap":86,"magType":"mb","type":"earthquake","title":"M 4.8 - Pulau Pulau Tanimbar, Indonesia"},"geometry":{"type":"Point","coordinates":[130.3922,-7.397,30.609]},"id":"us6000tjxa"},
{"type":"Feature","properties":{"mag":4.5,"place":"264 km SW of Severo-Kuril’sk, Russia","time":1786450421963,"updated":1786463740040,"tz":null,"url":"https://earthquake.usgs.gov/earthquakes/eventpage/us6000tjx7","detail":"https://earthquake.usgs.gov/fdsnws/event/1/query?eventid=us6000tjx7&format=geojson","felt":null,"cdi":null,"mmi":null,"alert":null,"status":"reviewed","tsunami":0,"sig":312,"net":"us","code":"6000tjx7","ids":",us6000tjx7,","sources":",us,","types":",origin,phase-data,","nst":78,"dmin":4.781,"rms":0.63,"gap":143,"magType":"mb","type":"earthquake","title":"M 4.5 - 264 km SW of Severo-Kuril’sk, Russia"},"geometry":{"type":"Point","coordinates":[153.1425,49.2842,174.304]},"id":"us6000tjx7"},
{"type":"Feature","properties":{"mag":4.6,"place":"Banda Sea","time":1786445392149,"updated":1786450277040,"tz":null,"url":"https://earthquake.usgs.gov/earthquakes/eventpage/us6000tjx1","detail":"https://earthquake.usgs.gov/fdsnws/event/1/query?eventid=us6000tjx1&format=geojson","felt":null,"cdi":null,"mmi":null,"alert":null,"status":"reviewed","tsunami":0,"sig":326,"net":"us","code":"6000tjx1","ids":",us6000tjx1,","sources":",us,","types":",origin,phase-data,","nst":84,"dmin":2.195,"rms":0.4,"gap":83,"magType":"mb","type":"earthquake","title":"M 4.6 - Banda Sea"},"geometry":{"type":"Point","coordinates":[129.7317,-6.7252,170.699]},"id":"us6000tjx1"},
{"type":"Feature","properties":{"mag":4.6,"place":"99 km SSE of Sand Point, Alaska","time":1786438164635,"updated":1786464389320,"tz":null,"url":"https://earthquake.usgs.gov/earthquakes/eventpage/us6000tjwh","detail":"https://earthquake.usgs.gov/fdsnws/event/1/query?eventid=us6000tjwh&format=geojson","felt":2,"cdi":3.8,"mmi":3.35,"alert":null,"status":"reviewed","tsunami":0,"sig":326,"net":"us","code":"6000tjwh","ids":",aka2026pusnfi,us6000tjwh,","sources":",ak,us,","types":",dyfi,origin,phase-data,shakemap,","nst":48,"dmin":1.527,"rms":0.98,"gap":168,"magType":"mb","type":"earthquake","title":"M 4.6 - 99 km SSE of Sand Point, Alaska"},"geometry":{"type":"Point","coordinates":[-159.9971,54.4899,36.925]},"id":"us6000tjwh"},
{"type":"Feature","properties":{"mag":4.6,"place":"40 km SSW of Sechura, Peru","time":1786435234362,"updated":1786438411040,"tz":null,"url":"https://earthquake.usgs.gov/earthquakes/eventpage/us6000tjwd","detail":"https://earthquake.usgs.gov/fdsnws/event/1/query?eventid=us6000tjwd&format=geojson","felt":null,"cdi":null,"mmi":null,"alert":null,"status":"reviewed","tsunami":0,"sig":326,"net":"us","code":"6000tjwd","ids":",us6000tjwd,","sources":",us,","types":",origin,phase-data,","nst":37,"dmin":2.49,"rms":0.74,"gap":154,"magType":"mb","type":"earthquake","title":"M 4.6 - 40 km SSW of Sechura, Peru"},"geometry":{"type":"Point","coordinates":[-81.0116,-5.8682,39.674]},"id":"us6000tjwd"},
{"type":"Feature","properties":{"mag":4.5,"place":"south of the Fiji Islands","time":1786417879919,"updated":1786419668040,"tz":null,"url":"https://earthquake.usgs.gov/earthquakes/eventpage/us6000tjvb","detail":"https://earthquake.usgs.gov/fdsnws/event/1/query?eventid=us6000tjvb&format=geojson","felt":null,"cdi":null,"mmi":null,"alert":null,"status":"reviewed","tsunami":0,"sig":312,"net":"us","code":"6000tjvb","ids":",us6000tjvb,","sources":",us,","types":",origin,phase-data,","nst":55,"dmin":6.168,"rms":0.58,"gap":79,"magType":"mb","type":"earthquake","title":"M 4.5 - south of the Fiji Islands"},"geometry":{"type":"Point","coordinates":[-179.7759,-23.5978,548.449]},"id":"us6000tjvb"},
{"type":"Feature","properties":{"mag":4.7,"place":"81 km SSE of Bengkulu, Indonesia","time":1786410766205,"updated":1786418721420,"tz":null,"url":"https://earthquake.usgs.gov/earthquakes/eventpage/us6000tjug","detail":"https://earthquake.usgs.gov/fdsnws/event/1/query?eventid=us6000tjug&format=geojson","felt":0,"cdi":1,"mmi":null,"alert":null,"status":"reviewed","tsunami":0,"sig":340,"net":"us","code":"6000tjug","ids":",us6000tjug,","sources":",us,","types":",dyfi,origin,phase-data,","nst":38,"dmin":0.42,"rms":0.64,"gap":188,"magType":"mb","type":"earthquake","title":"M 4.7 - 81 km SSE of Bengkulu, Indonesia"},"geometry":{"type":"Point","coordinates":[102.5519,-4.4801,61.94]},"id":"us6000tjug"},
{"type":"Feature","properties":{"mag":4.5,"place":"12 km SE of Baixi, China","time":1786397504273,"updated":1786422401040,"tz":null,"url":"https://earthquake.usgs.gov/earthquakes/eventpage/us6000tjt8","detail":"https://earthquake.usgs.gov/fdsnws/event/1/query?eventid=us6000tjt8&format=geojson","felt":null,"cdi":null,"mmi":null,"alert":null,"status":"reviewed","tsunami":0,"sig":312,"net":"us","code":"6000tjt8","ids":",us6000tjt8,","sources":",us,","types":",origin,phase-data,","nst":96,"dmin":7.367,"rms":0.65,"gap":42,"magType":"mb","type":"earthquake","title":"M 4.5 - 12 km SE of Baixi, China"},"geometry":{"type":"Point","coordinates":[104.6343,28.6111,55.31]},"id":"us6000tjt8"},
{"type":"Feature","properties":{"mag":5.1,"place":"232 km SSW of Pagar Alam, Indonesia","time":1786381686809,"updated":1786382657040,"tz":null,"url":"https://earthquake.usgs.gov/earthquakes/eventpage/us6000tjqj","detail":"https://earthquake.usgs.gov/fdsnws/event/1/query?eventid=us6000tjqj&format=geojson","felt":null,"cdi":null,"mmi":null,"alert":null,"status":"reviewed","tsunami":0,"sig":400,"net":"us","code":"6000tjqj","ids":",us6000tjqj,","sources":",us,","types":",origin,phase-data,","nst":49,"dmin":1.672,"rms":0.82,"gap":182,"magType":"mb","type":"earthquake","title":"M 5.1 - 232 km SSW of Pagar Alam, Indonesia"},"geometry":{"type":"Point","coordinates":[102.3607,-5.9347,21.72]},"id":"us6000tjqj"},
{"type":"Feature","properties":{"mag":4.7,"place":"55 km NW of Shahrak-e Kūlūrī, Iran","time":1786374070127,"updated":1786378765792,"tz":null,"url":"https://earthquake.usgs.gov/earthquakes/eventpage/us6000tjmt","detail":"https://earthquake.usgs.gov/fdsnws/event/1/query?eventid=us6000tjmt&format=geojson","felt":1,"cdi":2,"mmi":null,"alert":null,"status":"reviewed","tsunami":0,"sig":340,"net":"us","code":"6000tjmt","ids":",us6000tjmt,","sources":",us,","types":",dyfi,origin,phase-data,","nst":60,"dmin":2.989,"rms":0.95,"gap":83,"magType":"mb","type":"earthquake","title":"M 4.7 - 55 km NW of Shahrak-e Kūlūrī, Iran"},"geometry":{"type":"Point","coordinates":[48.0359,32.6863,10]},"id":"us6000tjmt"},
{"type":"Feature","properties":{"mag":5,"place":"16 km W of San José del Palmar, Colombia","time":1786367890451,"updated":1786418844052,"tz":null,"url":"https://earthquake.usgs.gov/earthquakes/eventpage/us6000tjm4","detail":"https://earthquake.usgs.gov/fdsnws/event/1/query?eventid=us6000tjm4&format=geojson","felt":4,"cdi":3.4,"mmi":null,"alert":null,"status":"reviewed","tsunami":0,"sig":386,"net":"us","code":"6000tjm4","ids":",us6000tjm4,","sources":",us,","types":",dyfi,origin,phase-data,","nst":115,"dmin":1.542,"rms":1.03,"gap":87,"magType":"mb","type":"earthquake","title":"M 5.0 - 16 km W of San José del Palmar, Colombia"},"geometry":{"type":"Point","coordinates":[-76.3859,4.8971,98.522]},"id":"us6000tjm4"},
{"type":"Feature","properties":{"mag":4.8,"place":"173 km ENE of Sola, Vanuatu","time":1786365970915,"updated":1786366822040,"tz":null,"url":"https://earthquake.usgs.gov/earthquakes/eventpage/us6000tjls","detail":"https://earthquake.usgs.gov/fdsnws/event/1/query?eventid=us6000tjls&format=geojson","felt":null,"cdi":null,"mmi":null,"alert":null,"status":"reviewed","tsunami":0,"sig":354,"net":"us","code":"6000tjls","ids":",us6000tjls,","sources":",us,","types":",origin,phase-data,","nst":23,"dmin":8.69,"rms":0.59,"gap":88,"magType":"mb","type":"earthquake","title":"M 4.8 - 173 km ENE of Sola, Vanuatu"},"geometry":{"type":"Point","coordinates":[168.8919,-13.0188,655.67]},"id":"us6000tjls"},
{"type":"Feature","properties":{"mag":7.4,"place":"5 km S of San José del Palmar, Colombia","time":1786365268125,"updated":1786491839194,"tz":null,"url":"https://earthquake.usgs.gov/earthquakes/eventpage/us6000tjl2","detail":"https://earthquake.usgs.gov/fdsnws/event/1/query?eventid=us6000tjl2&format=geojson","felt":1081,"cdi":7.9,"mmi":7.999,"alert":"red","status":"reviewed","tsunami":0,"sig":2790,"net":"us","code":"6000tjl2","ids":",us6000tjl2,usauto6000tjl2,attjk09g,pt26222000,","sources":",us,usauto,at,pt,","types":",dyfi,event-sequence,general-text,ground-failure,internal-moment-tensor,internal-origin,losspager,moment-tensor,oaf,origin,phase-data,shakemap,","nst":151,"dmin":1.515,"rms":0.86,"gap":19,"magType":"mww","type":"earthquake","title":"M 7.4 - 5 km S of San José del Palmar, Colombia"},"geometry":{"type":"Point","coordinates":[-76.2422,4.8436,110.285]},"id":"us6000tjl2"},
{"type":"Feature","properties":{"mag":5,"place":"northern Mid-Atlantic Ridge","time":1786363942220,"updated":1786365137040,"tz":null,"url":"https://earthquake.usgs.gov/earthquakes/eventpage/us6000tjl0","detail":"https://earthquake.usgs.gov/fdsnws/event/1/query?eventid=us6000tjl0&format=geojson","felt":null,"cdi":null,"mmi":null,"alert":null,"status":"reviewed","tsunami":0,"sig":385,"net":"us","code":"6000tjl0","ids":",usauto6000tjl0,us6000tjl0,","sources":",usauto,us,","types":",internal-moment-tensor,origin,phase-data,","nst":67,"dmin":14.006,"rms":0.95,"gap":130,"magType":"mww","type":"earthquake","title":"M 5.0 - northern Mid-Atlantic Ridge"},"geometry":{"type":"Point","coordinates":[-45.8376,17.5068,10]},"id":"us6000tjl0"},
{"type":"Feature","properties":{"mag":4.7,"place":"180 km NE of Sola, Vanuatu","time":1786362625901,"updated":1786363736040,"tz":null,"url":"https://earthquake.usgs.gov/earthquakes/eventpage/us6000tjku","detail":"https://earthquake.usgs.gov/fdsnws/event/1/query?eventid=us6000tjku&format=geojson","felt":null,"cdi":null,"mmi":null,"alert":null,"status":"reviewed","tsunami":0,"sig":340,"net":"us","code":"6000tjku","ids":",us6000tjku,","sources":",us,","types":",origin,phase-data,","nst":100,"dmin":8.796,"rms":0.51,"gap":51,"magType":"mb","type":"earthquake","title":"M 4.7 - 180 km NE of Sola, Vanuatu"},"geometry":{"type":"Point","coordinates":[168.882,-12.8915,640.51]},"id":"us6000tjku"},
{"type":"Feature","properties":{"mag":4.7,"place":"66 km ENE of Shikotan, Russia","time":1786358202622,"updated":1786359950040,"tz":null,"url":"https://earthquake.usgs.gov/earthquakes/eventpage/us6000tjkl","detail":"https://earthquake.usgs.gov/fdsnws/event/1/query?eventid=us6000tjkl&format=geojson","felt":null,"cdi":null,"mmi":null,"alert":null,"status":"reviewed","tsunami":0,"sig":340,"net":"us","code":"6000tjkl","ids":",us6000tjkl,","sources":",us,","types":",origin,phase-data,","nst":59,"dmin":3.534,"rms":0.41,"gap":135,"magType":"mb","type":"earthquake","title":"M 4.7 - 66 km ENE of Shikotan, Russia"},"geometry":{"type":"Point","coordinates":[147.4942,44.0156,66.149]},"id":"us6000tjkl"},
{"type":"Feature","properties":{"mag":4.8,"place":"80 km ESE of Isangel, Vanuatu","time":1786350868098,"updated":1786352732040,"tz":null,"url":"https://earthquake.usgs.gov/earthquakes/eventpage/us6000tjk6","detail":"https://earthquake.usgs.gov/fdsnws/event/1/query?eventid=us6000tjk6&format=geojson","felt":null,"cdi":null,"mmi":null,"alert":null,"status":"reviewed","tsunami":0,"sig":354,"net":"us","code":"6000tjk6","ids":",us6000tjk6,","sources":",us,","types":",origin,phase-data,","nst":27,"dmin":3.679,"rms":0.82,"gap":104,"magType":"mb","type":"earthquake","title":"M 4.8 - 80 km ESE of Isangel, Vanuatu"},"geometry":{"type":"Point","coordinates":[170,-19.7958,10]},"id":"us6000tjk6"},
{"type":"Feature","properties":{"mag":4.8,"place":"46 km WNW of Hicks Bay, New Zealand","time":1786346248964,"updated":1786361455340,"tz":null,"url":"https://earthquake.usgs.gov/earthquakes/eventpage/us6000tjjz","detail":"https://earthquake.usgs.gov/fdsnws/event/1/query?eventid=us6000tjjz&format=geojson","felt":1,"cdi":2.7,"mmi":null,"alert":null,"status":"reviewed","tsunami":0,"sig":355,"net":"us","code":"6000tjjz","ids":",us6000tjjz,","sources":",us,","types":",dyfi,origin,phase-data,","nst":38,"dmin":0.41,"rms":1,"gap":140,"magType":"mb","type":"earthquake","title":"M 4.8 - 46 km WNW of Hicks Bay, New Zealand"},"geometry":{"type":"Point","coordinates":[177.8305,-37.4038,71.243]},"id":"us6000tjjz"},
{"type":"Feature","properties":{"mag":5.5,"place":"east central Pacific Ocean","time":1786340504224,"updated":1786427259637,"tz":null,"url":"https://earthquake.usgs.gov/earthquakes/eventpage/us6000tjjj","detail":"https://earthquake.usgs.gov/fdsnws/event/1/query?eventid=us6000tjjj&format=geojson","felt":null,"cdi":null,"mmi":0,"alert":"green","status":"reviewed","tsunami":0,"sig":465,"net":"us","code":"6000tjjj","ids":",usauto6000tjjj,us6000tjjj,","sources":",usauto,us,","types":",internal-moment-tensor,losspager,origin,phase-data,shakemap,","nst":83,"dmin":23.284,"rms":1.02,"gap":60,"magType":"mb","type":"earthquake","title":"M 5.5 - east central Pacific Ocean"},"geometry":{"type":"Point","coordinates":[-114.648,0.3112,10]},"id":"us6000tjjj"},
{"type":"Feature","properties":{"mag":4.6,"place":"13 km ESE of San Miguel, Philippines","time":1786340151062,"updated":1786343404040,"tz":null,"url":"https://earthquake.usgs.gov/earthquakes/eventpage/us6000tjjh","detail":"https://earthquake.usgs.gov/fdsnws/event/1/query?eventid=us6000tjjh&format=geojson","felt":null,"cdi":null,"mmi":null,"alert":null,"status":"reviewed","tsunami":0,"sig":326,"net":"us","code":"6000tjjh","ids":",us6000tjjh,","sources":",us,","types":",origin,phase-data,","nst":50,"dmin":1.899,"rms":0.51,"gap":95,"magType":"mb","type":"earthquake","title":"M 4.6 - 13 km ESE of San Miguel, Philippines"},"geometry":{"type":"Point","coordinates":[126.0577,8.9207,103.062]},"id":"us6000tjjh"},
{"type":"Feature","properties":{"mag":4.9,"place":"88 km ENE of Hihifo, Tonga","time":1786324810110,"updated":1786326962040,"tz":null,"url":"https://earthquake.usgs.gov/earthquakes/eventpage/us6000tjiq","detail":"https://earthquake.usgs.gov/fdsnws/event/1/query?eventid=us6000tjiq&format=geojson","felt":null,"cdi":null,"mmi":null,"alert":null,"status":"reviewed","tsunami":0,"sig":369,"net":"us","code":"6000tjiq","ids":",us6000tjiq,","sources":",us,","types":",origin,phase-data,","nst":31,"dmin":2.083,"rms":0.68,"gap":103,"magType":"mb","type":"earthquake","title":"M 4.9 - 88 km ENE of Hihifo, Tonga"},"geometry":{"type":"Point","coordinates":[-173.0524,-15.6002,10]},"id":"us6000tjiq"},
{"type":"Feature","properties":{"mag":5,"place":"206 km SE of Sarangani, Philippines","time":1786313847839,"updated":1786334064040,"tz":null,"url":"https://earthquake.usgs.gov/earthquakes/eventpage/us6000tji3","detail":"https://earthquake.usgs.gov/fdsnws/event/1/query?eventid=us6000tji3&format=geojson","felt":null,"cdi":null,"mmi":null,"alert":null,"status":"reviewed","tsunami":0,"sig":385,"net":"us","code":"6000tji3","ids":",us6000tji3,","sources":",us,","types":",origin,phase-data,","nst":87,"dmin":3.165,"rms":0.91,"gap":71,"magType":"mb","type":"earthquake","title":"M 5.0 - 206 km SE of Sarangani, Philippines"},"geometry":{"type":"Point","coordinates":[126.8342,4.1417,35]},"id":"us6000tji3"},
{"type":"Feature","properties":{"mag":4.9,"place":"211 km SE of Sarangani, Philippines","time":1786311758761,"updated":1786327723040,"tz":null,"url":"https://earthquake.usgs.gov/earthquakes/eventpage/us6000tjhn","detail":"https://earthquake.usgs.gov/fdsnws/event/1/query?eventid=us6000tjhn&format=geojson","felt":null,"cdi":null,"mmi":null,"alert":null,"status":"reviewed","tsunami":0,"sig":369,"net":"us","code":"6000tjhn","ids":",us6000tjhn,","sources":",us,","types":",origin,phase-data,","nst":53,"dmin":3.168,"rms":0.69,"gap":121,"magType":"mb","type":"earthquake","title":"M 4.9 - 211 km SE of Sarangani, Philippines"},"geometry":{"type":"Point","coordinates":[126.9362,4.1847,35]},"id":"us6000tjhn"},
{"type":"Feature","properties":{"mag":4.5,"place":"south of the Fiji Islands","time":1786299782637,"updated":1786302075040,"tz":null,"url":"https://earthquake.usgs.gov/earthquakes/eventpage/us6000tjgp","detail":"https://earthquake.usgs.gov/fdsnws/event/1/query?eventid=us6000tjgp&format=geojson","felt":null,"cdi":null,"mmi":null,"alert":null,"status":"reviewed","tsunami":0,"sig":312,"net":"us","code":"6000tjgp","ids":",us6000tjgp,","sources":",us,","types":",origin,phase-data,","nst":52,"dmin":5.669,"rms":0.67,"gap":104,"magType":"mb","type":"earthquake","title":"M 4.5 - south of the Fiji Islands"},"geometry":{"type":"Point","coordinates":[-179.8704,-23.8269,525.534]},"id":"us6000tjgp"},
{"type":"Feature","properties":{"mag":4.5,"place":"123 km WNW of Panguna, Papua New Guinea","time":1786299089507,"updated":1786301341040,"tz":null,"url":"https://earthquake.usgs.gov/earthquakes/eventpage/us6000tjgl","detail":"https://earthquake.usgs.gov/fdsnws/event/1/query?eventid=us6000tjgl&format=geojson","felt":null,"cdi":null,"mmi":null,"alert":null,"status":"reviewed","tsunami":0,"sig":312,"net":"us","code":"6000tjgl","ids":",us6000tjgl,","sources":",us,","types":",origin,phase-data,","nst":62,"dmin":2.825,"rms":0.78,"gap":67,"magType":"mb","type":"earthquake","title":"M 4.5 - 123 km WNW of Panguna, Papua New Guinea"},"geometry":{"type":"Point","coordinates":[154.4887,-5.8198,104.48]},"id":"us6000tjgl"},
{"type":"Feature","properties":{"mag":4.6,"place":"19 km ESE of Metahāra, Ethiopia","time":1786295502151,"updated":1786297851040,"tz":null,"url":"https://earthquake.usgs.gov/earthquakes/eventpage/us6000tjgf","detail":"https://earthquake.usgs.gov/fdsnws/event/1/query?eventid=us6000tjgf&format=geojson","felt":null,"cdi":null,"mmi":null,"alert":null,"status":"reviewed","tsunami":0,"sig":326,"net":"us","code":"6000tjgf","ids":",us6000tjgf,","sources":",us,","types":",origin,phase-data,","nst":36,"dmin":3.844,"rms":0.81,"gap":166,"magType":"mb","type":"earthquake","title":"M 4.6 - 19 km ESE of Metahāra, Ethiopia"},"geometry":{"type":"Point","coordinates":[40.0706,8.8103,10]},"id":"us6000tjgf"},
{"type":"Feature","properties":{"mag":4.8,"place":"7 km ESE of Mabini, Philippines","time":1786295142371,"updated":1786297476519,"tz":null,"url":"https://earthquake.usgs.gov/earthquakes/eventpage/us6000tjgd","detail":"https://earthquake.usgs.gov/fdsnws/event/1/query?eventid=us6000tjgd&format=geojson","felt":1,"cdi":2,"mmi":null,"alert":null,"status":"reviewed","tsunami":0,"sig":355,"net":"us","code":"6000tjgd","ids":",us6000tjgd,","sources":",us,","types":",dyfi,origin,phase-data,","nst":89,"dmin":4.31,"rms":0.61,"gap":99,"magType":"mb","type":"earthquake","title":"M 4.8 - 7 km ESE of Mabini, Philippines"},"geometry":{"type":"Point","coordinates":[125.2313,11.3941,110.58]},"id":"us6000tjgd"},
{"type":"Feature","properties":{"mag":4.6,"place":"30 km NNE of Satipo, Peru","time":1786290005269,"updated":1786292711040,"tz":null,"url":"https://earthquake.usgs.gov/earthquakes/eventpage/us6000tjfr","detail":"https://earthquake.usgs.gov/fdsnws/event/1/query?eventid=us6000tjfr&format=geojson","felt":null,"cdi":null,"mmi":null,"alert":null,"status":"reviewed","tsunami":0,"sig":326,"net":"us","code":"6000tjfr","ids":",us6000tjfr,","sources":",us,","types":",origin,phase-data,","nst":47,"dmin":2.456,"rms":0.68,"gap":74,"magType":"mb","type":"earthquake","title":"M 4.6 - 30 km NNE of Satipo, Peru"},"geometry":{"type":"Point","coordinates":[-74.5481,-10.994,95.468]},"id":"us6000tjfr"},
{"type":"Feature","properties":{"mag":5.3,"place":"197 km SSW of Pagar Alam, Indonesia","time":1786288503956,"updated":1786362946040,"tz":null,"url":"https://earthquake.usgs.gov/earthquakes/eventpage/us6000tjfj","detail":"https://earthquake.usgs.gov/fdsnws/event/1/query?eventid=us6000tjfj&format=geojson","felt":null,"cdi":null,"mmi":null,"alert":null,"status":"reviewed","tsunami":0,"sig":432,"net":"us","code":"6000tjfj","ids":",usauto6000tjfj,us6000tjfj,","sources":",usauto,us,","types":",internal-moment-tensor,moment-tensor,origin,phase-data,","nst":67,"dmin":1.41,"rms":0.76,"gap":71,"magType":"mww","type":"earthquake","title":"M 5.3 - 197 km SSW of Pagar Alam, Indonesia"},"geometry":{"type":"Point","coordinates":[102.8866,-5.7782,35]},"id":"us6000tjfj"},
{"type":"Feature","properties":{"mag":4.6,"place":"68 km SSE of Sarangani, Philippines","time":1786283226146,"updated":1786284188040,"tz":null,"url":"https://earthquake.usgs.gov/earthquakes/eventpage/us6000tjfb","detail":"https://earthquake.usgs.gov/fdsnws/event/1/query?eventid=us6000tjfb&format=geojson","felt":null,"cdi":null,"mmi":null,"alert":null,"status":"reviewed","tsunami":0,"sig":326,"net":"us","code":"6000tjfb","ids":",us6000tjfb,","sources":",us,","types":",origin,phase-data,","nst":41,"dmin":2.242,"rms":1.22,"gap":110,"magType":"mb","type":"earthquake","title":"M 4.6 - 68 km SSE of Sarangani, Philippines"},"geometry":{"type":"Point","coordinates":[125.6593,4.814,162.836]},"id":"us6000tjfb"},
{"type":"Feature","properties":{"mag":5.2,"place":"Galapagos Triple Junction region","time":1786276653237,"updated":1786277826040,"tz":null,"url":"https://earthquake.usgs.gov/earthquakes/eventpage/us6000tjen","detail":"https://earthquake.usgs.gov/fdsnws/event/1/query?eventid=us6000tjen&format=geojson","felt":null,"cdi":null,"mmi":null,"alert":null,"status":"reviewed","tsunami":0,"sig":416,"net":"us","code":"6000tjen","ids":",usauto6000tjen,us6000tjen,","sources":",usauto,us,","types":",internal-moment-tensor,moment-tensor,origin,phase-data,","nst":81,"dmin":11.992,"rms":0.47,"gap":169,"magType":"mww","type":"earthquake","title":"M 5.2 - Galapagos Triple Junction region"},"geometry":{"type":"Point","coordinates":[-101.9125,2.2955,10]},"id":"us6000tjen"},
{"type":"Feature","properties":{"mag":4.6,"place":"96 km S of Sarangani, Philippines","time":1786269871077,"updated":1786275354040,"tz":null,"url":"https://earthquake.usgs.gov/earthquakes/eventpage/us6000tje3","detail":"https://earthquake.usgs.gov/fdsnws/event/1/query?eventid=us6000tje3&format=geojson","felt":null,"cdi":null,"mmi":null,"alert":null,"status":"reviewed","tsunami":0,"sig":326,"net":"us","code":"6000tje3","ids":",us6000tje3,","sources":",us,","types":",origin,phase-data,","nst":31,"dmin":2.527,"rms":0.46,"gap":106,"magType":"mb","type":"earthquake","title":"M 4.6 - 96 km S of Sarangani, Philippines"},"geometry":{"type":"Point","coordinates":[125.3517,4.5364,10]},"id":"us6000tje3"},
{"type":"Feature","properties":{"mag":4.6,"place":"12 km W of Chambara, Peru","time":1786248344245,"updated":1786258961171,"tz":null,"url":"https://earthquake.usgs.gov/earthquakes/eventpage/us6000tjcr","detail":"https://earthquake.usgs.gov/fdsnws/event/1/query?eventid=us6000tjcr&format=geojson","felt":2,"cdi":3.8,"mmi":null,"alert":null,"status":"reviewed","tsunami":0,"sig":326,"net":"us","code":"6000tjcr","ids":",us6000tjcr,","sources":",us,","types":",dyfi,origin,phase-data,","nst":22,"dmin":1.324,"rms":1.12,"gap":100,"magType":"mb","type":"earthquake","title":"M 4.6 - 12 km W of Chambara, Peru"},"geometry":{"type":"Point","coordinates":[-75.4906,-12.0506,10]},"id":"us6000tjcr"},
{"type":"Feature","properties":{"mag":4.9,"place":"68 km ESE of Atka, Alaska","time":1786246577166,"updated":1786248990682,"tz":null,"url":"https://earthquake.usgs.gov/earthquakes/eventpage/us6000tjcn","detail":"https://earthquake.usgs.gov/fdsnws/event/1/query?eventid=us6000tjcn&format=geojson","felt":1,"cdi":2.7,"mmi":3.948,"alert":null,"status":"reviewed","tsunami":0,"sig":370,"net":"us","code":"6000tjcn","ids":",aka2026pqqava,us6000tjcn,","sources":",ak,us,","types":",dyfi,origin,phase-data,shakemap,","nst":76,"dmin":0.591,"rms":1.07,"gap":125,"magType":"mb","type":"earthquake","title":"M 4.9 - 68 km ESE of Atka, Alaska"},"geometry":{"type":"Point","coordinates":[-173.261,51.987,60.301]},"id":"us6000tjcn"},
{"type":"Feature","properties":{"mag":5,"place":"180 km NW of Sabang, Indonesia","time":1786244527086,"updated":1786245678040,"tz":null,"url":"https://earthquake.usgs.gov/earthquakes/eventpage/us6000tjcl","detail":"https://earthquake.usgs.gov/fdsnws/event/1/query?eventid=us6000tjcl&format=geojson","felt":null,"cdi":null,"mmi":null,"alert":null,"status":"reviewed","tsunami":0,"sig":385,"net":"us","code":"6000tjcl","ids":",us6000tjcl,","sources":",us,","types":",origin,phase-data,","nst":53,"dmin":3.308,"rms":0.84,"gap":65,"magType":"mb","type":"earthquake","title":"M 5.0 - 180 km NW of Sabang, Indonesia"},"geometry":{"type":"Point","coordinates":[94.1402,7.017,10]},"id":"us6000tjcl"},
{"type":"Feature","properties":{"mag":4.9,"place":"237 km E of Levuka, Fiji","time":1786237759167,"updated":1786238669040,"tz":null,"url":"https://earthquake.usgs.gov/earthquakes/eventpage/us6000tjc4","detail":"https://earthquake.usgs.gov/fdsnws/event/1/query?eventid=us6000tjc4&format=geojson","felt":null,"cdi":null,"mmi":null,"alert":null,"status":"reviewed","tsunami":0,"sig":369,"net":"us","code":"6000tjc4","ids":",us6000tjc4,","sources":",us,","types":",origin,phase-data,","nst":40,"dmin":2.487,"rms":0.85,"gap":122,"magType":"mb","type":"earthquake","title":"M 4.9 - 237 km E of Levuka, Fiji"},"geometry":{"type":"Point","coordinates":[-178.453,-17.848,589.12]},"id":"us6000tjc4"},
{"type":"Feature","properties":{"mag":4.5,"place":"92 km SSW of Sarangani, Philippines","time":1786230742267,"updated":1786233885040,"tz":null,"url":"https://earthquake.usgs.gov/earthquakes/eventpage/us6000tjbq","detail":"https://earthquake.usgs.gov/fdsnws/event/1/query?eventid=us6000tjbq&format=geojson","felt":null,"cdi":null,"mmi":null,"alert":null,"status":"reviewed","tsunami":0,"sig":312,"net":"us","code":"6000tjbq","ids":",us6000tjbq,","sources":",us,","types":",origin,phase-data,","nst":27,"dmin":2.487,"rms":1.07,"gap":123,"magType":"mb","type":"earthquake","title":"M 4.5 - 92 km SSW of Sarangani, Philippines"},"geometry":{"type":"Point","coordinates":[125.2976,4.5819,9.688]},"id":"us6000tjbq"},
{"type":"Feature","properties":{"mag":4.8,"place":"northern Mid-Atlantic Ridge","time":1786226945164,"updated":1786228660040,"tz":null,"url":"https://earthquake.usgs.gov/earthquakes/eventpage/us6000tjbg","detail":"https://earthquake.usgs.gov/fdsnws/event/1/query?eventid=us6000tjbg&format=geojson","felt":null,"cdi":null,"mmi":null,"alert":null,"status":"reviewed","tsunami":0,"sig":354,"net":"us","code":"6000tjbg","ids":",us6000tjbg,","sources":",us,","types":",origin,phase-data,","nst":77,"dmin":10.911,"rms":0.92,"gap":46,"magType":"mww","type":"earthquake","title":"M 4.8 - northern Mid-Atlantic Ridge"},"geometry":{"type":"Point","coordinates":[-38.0334,33.7777,10]},"id":"us6000tjbg"},
{"type":"Feature","properties":{"mag":4.7,"place":"Kermadec Islands region","time":1786216077041,"updated":1786217295040,"tz":null,"url":"https://earthquake.usgs.gov/earthquakes/eventpage/us6000tjas","detail":"https://earthquake.usgs.gov/fdsnws/event/1/query?eventid=us6000tjas&format=geojson","felt":null,"cdi":null,"mmi":null,"alert":null,"status":"reviewed","tsunami":0,"sig":340,"net":"us","code":"6000tjas","ids":",us6000tjas,","sources":",us,","types":",origin,phase-data,","nst":38,"dmin":1.41,"rms":0.45,"gap":127,"magType":"mb","type":"earthquake","title":"M 4.7 - Kermadec Islands region"},"geometry":{"type":"Point","coordinates":[-176.5182,-28.5661,10]},"id":"us6000tjas"},
{"type":"Feature","properties":{"mag":4.6,"place":"47 km WNW of Lata, Solomon Islands","time":1786213706011,"updated":1786214744040,"tz":null,"url":"https://earthquake.usgs.gov/earthquakes/eventpage/us6000tjan","detail":"https://earthquake.usgs.gov/fdsnws/event/1/query?eventid=us6000tjan&format=geojson","felt":null,"cdi":null,"mmi":null,"alert":null,"status":"reviewed","tsunami":0,"sig":326,"net":"us","code":"6000tjan","ids":",us6000tjan,","sources":",us,","types":",origin,phase-data,","nst":41,"dmin":5.499,"rms":0.64,"gap":106,"magType":"mb","type":"earthquake","title":"M 4.6 - 47 km WNW of Lata, Solomon Islands"},"geometry":{"type":"Point","coordinates":[165.4256,-10.5042,75.441]},"id":"us6000tjan"},
{"type":"Feature","properties":{"mag":5.6,"place":"42 km E of Noda, Japan","time":1786211878745,"updated":1786298686510,"tz":null,"url":"https://earthquake.usgs.gov/earthquakes/eventpage/us6000tjaj","detail":"https://earthquake.usgs.gov/fdsnws/event/1/query?eventid=us6000tjaj&format=geojson","felt":2,"cdi":3.8,"mmi":4.041,"alert":"green","status":"reviewed","tsunami":0,"sig":483,"net":"us","code":"6000tjaj","ids":",us6000tjaj,usauto6000tjaj,","sources":",us,usauto,","types":",dyfi,internal-moment-tensor,losspager,moment-tensor,origin,phase-data,shakemap,","nst":118,"dmin":1.133,"rms":0.56,"gap":96,"magType":"mww","type":"earthquake","title":"M 5.6 - 42 km E of Noda, Japan"},"geometry":{"type":"Point","coordinates":[142.3107,40.1723,34]},"id":"us6000tjaj"},
{"type":"Feature","properties":{"mag":4.5,"place":"Kuril Islands","time":1786203188369,"updated":1786472594040,"tz":null,"url":"https://earthquake.usgs.gov/earthquakes/eventpage/us6000tj9r","detail":"https://earthquake.usgs.gov/fdsnws/event/1/query?eventid=us6000tj9r&format=geojson","felt":null,"cdi":null,"mmi":null,"alert":null,"status":"reviewed","tsunami":0,"sig":312,"net":"us","code":"6000tj9r","ids":",us6000tj9r,","sources":",us,","types":",origin,phase-data,","nst":70,"dmin":7.018,"rms":0.56,"gap":134,"magType":"mb","type":"earthquake","title":"M 4.5 - Kuril Islands"},"geometry":{"type":"Point","coordinates":[153.0277,46.7745,34.915]},"id":"us6000tj9r"},
{"type":"Feature","properties":{"mag":5.2,"place":"southeast of Easter Island","time":1786196970300,"updated":1786459499040,"tz":null,"url":"https://earthquake.usgs.gov/earthquakes/eventpage/us6000tjer","detail":"https://earthquake.usgs.gov/fdsnws/event/1/query?eventid=us6000tjer&format=geojson","felt":null,"cdi":null,"mmi":null,"alert":null,"status":"reviewed","tsunami":0,"sig":416,"net":"us","code":"6000tjer","ids":",us6000tjer,","sources":",us,","types":",origin,phase-data,","nst":51,"dmin":14.012,"rms":0.53,"gap":76,"magType":"mww","type":"earthquake","title":"M 5.2 - southeast of Easter Island"},"geometry":{"type":"Point","coordinates":[-90.5965,-41.3258,10]},"id":"us6000tjer"},
{"type":"Feature","properties":{"mag":4.6,"place":"77 km WSW of San Antonio de los Cobres, Argentina","time":1786193062647,"updated":1786194206040,"tz":null,"url":"https://earthquake.usgs.gov/earthquakes/eventpage/us6000tj96","detail":"https://earthquake.usgs.gov/fdsnws/event/1/query?eventid=us6000tj96&format=geojson","felt":null,"cdi":null,"mmi":null,"alert":null,"status":"reviewed","tsunami":0,"sig":326,"net":"us","code":"6000tj96","ids":",us6000tj96,","sources":",us,","types":",origin,phase-data,","nst":20,"dmin":1.764,"rms":0.83,"gap":92,"magType":"mb","type":"earthquake","title":"M 4.6 - 77 km WSW of San Antonio de los Cobres, Argentina"},"geometry":{"type":"Point","coordinates":[-67.0572,-24.392,163.582]},"id":"us6000tj96"},
{"type":"Feature","properties":{"mag":5.6,"place":"southeast of Easter Island","time":1786189287702,"updated":1786276067959,"tz":null,"url":"https://earthquake.usgs.gov/earthquakes/eventpage/us6000tj8t","detail":"https://earthquake.usgs.gov/fdsnws/event/1/query?eventid=us6000tj8t&format=geojson","felt":null,"cdi":null,"mmi":0,"alert":"green","status":"reviewed","tsunami":0,"sig":482,"net":"us","code":"6000tj8t","ids":",usauto6000tj8t,us6000tj8t,","sources":",usauto,us,","types":",internal-moment-tensor,losspager,moment-tensor,origin,phase-data,shakemap,","nst":49,"dmin":12.609,"rms":0.9,"gap":148,"magType":"mww","type":"earthquake","title":"M 5.6 - southeast of Easter Island"},"geometry":{"type":"Point","coordinates":[-90.0796,-41.4826,10]},"id":"us6000tj8t"},
{"type":"Feature","properties":{"mag":4.6,"place":"Vanuatu region","time":1786186566170,"updated":1786192486040,"tz":null,"url":"https://earthquake.usgs.gov/earthquakes/eventpage/us6000tj8n","detail":"https://earthquake.usgs.gov/fdsnws/event/1/query?eventid=us6000tj8n&format=geojson","felt":null,"cdi":null,"mmi":null,"alert":null,"status":"reviewed","tsunami":0,"sig":326,"net":"us","code":"6000tj8n","ids":",us6000tj8n,","sources":",us,","types":",origin,phase-data,","nst":23,"dmin":4.997,"rms":0.7,"gap":102,"magType":"mb","type":"earthquake","title":"M 4.6 - Vanuatu region"},"geometry":{"type":"Point","coordinates":[172.8279,-17.3821,10]},"id":"us6000tj8n"},
{"type":"Feature","properties":{"mag":4.8,"place":"54 km SW of Sarangani, Philippines","time":1786184446908,"updated":1786185412040,"tz":null,"url":"https://earthquake.usgs.gov/earthquakes/eventpage/us6000tj8e","detail":"https://earthquake.usgs.gov/fdsnws/event/1/query?eventid=us6000tj8e&format=geojson","felt":null,"cdi":null,"mmi":null,"alert":null,"status":"reviewed","tsunami":0,"sig":354,"net":"us","code":"6000tj8e","ids":",us6000tj8e,","sources":",us,","types":",origin,phase-data,","nst":26,"dmin":2.023,"rms":0.68,"gap":176,"magType":"mb","type":"earthquake","title":"M 4.8 - 54 km SW of Sarangani, Philippines"},"geometry":{"type":"Point","coordinates":[125.0834,5.095,10.022]},"id":"us6000tj8e"},
{"type":"Feature","properties":{"mag":4.8,"place":"95 km SSW of Severo-Kuril’sk, Russia","time":1786167579927,"updated":1786168790040,"tz":null,"url":"https://earthquake.usgs.gov/earthquakes/eventpage/us6000tj70","detail":"https://earthquake.usgs.gov/fdsnws/event/1/query?eventid=us6000tj70&format=geojson","felt":null,"cdi":null,"mmi":null,"alert":null,"status":"reviewed","tsunami":0,"sig":354,"net":"us","code":"6000tj70","ids":",us6000tj70,","sources":",us,","types":",origin,phase-data,","nst":96,"dmin":3.481,"rms":0.62,"gap":123,"magType":"mb","type":"earthquake","title":"M 4.8 - 95 km SSW of Severo-Kuril’sk, Russia"},"geometry":{"type":"Point","coordinates":[155.753,49.8507,82.521]},"id":"us6000tj70"},
{"type":"Feature","properties":{"mag":5.6,"place":"57 km WNW of Skwentna, Alaska","time":1786164634985,"updated":1786424449913,"tz":null,"url":"https://earthquake.usgs.gov/earthquakes/eventpage/aka2026powmkf","detail":"https://earthquake.usgs.gov/fdsnws/event/1/query?eventid=aka2026powmkf&format=geojson","felt":1137,"cdi":5.4,"mmi":5.879,"alert":null,"status":"reviewed","tsunami":0,"sig":1022,"net":"ak","code":"a2026powmkf","ids":",aka2026powmkf,usauto6000tj6h,us6000tj6h,attjfpga,","sources":",ak,usauto,us,at,","types":",dyfi,event-sequence,internal-moment-tensor,moment-tensor,oaf,origin,phase-data,shakemap,","nst":228,"dmin":0.5,"rms":1.1,"gap":18,"magType":"ml","type":"earthquake","title":"M 5.6 - 57 km WNW of Skwentna, Alaska"},"geometry":{"type":"Point","coordinates":[-152.314,62.269,10]},"id":"aka2026powmkf"},
{"type":"Feature","properties":{"mag":5,"place":"Kermadec Islands region","time":1786161571810,"updated":1786162570040,"tz":null,"url":"https://earthquake.usgs.gov/earthquakes/eventpage/us6000tj69","detail":"https://earthquake.usgs.gov/fdsnws/event/1/query?eventid=us6000tj69&format=geojson","felt":null,"cdi":null,"mmi":null,"alert":null,"status":"reviewed","tsunami":0,"sig":385,"net":"us","code":"6000tj69","ids":",us6000tj69,","sources":",us,","types":",origin,phase-data,","nst":24,"dmin":1.432,"rms":1.16,"gap":122,"magType":"mb","type":"earthquake","title":"M 5.0 - Kermadec Islands region"},"geometry":{"type":"Point","coordinates":[-176.5487,-28.4766,10]},"id":"us6000tj69"},
{"type":"Feature","properties":{"mag":4.8,"place":"158 km NNE of Darya Boyi, China","time":1786160726267,"updated":1786161577040,"tz":null,"url":"https://earthquake.usgs.gov/earthquakes/eventpage/us6000tj68","detail":"https://earthquake.usgs.gov/fdsnws/event/1/query?eventid=us6000tj68&format=geojson","felt":null,"cdi":null,"mmi":null,"alert":null,"status":"reviewed","tsunami":0,"sig":354,"net":"us","code":"6000tj68","ids":",us6000tj68,","sources":",us,","types":",origin,phase-data,","nst":41,"dmin":4.482,"rms":0.56,"gap":97,"magType":"mb","type":"earthquake","title":"M 4.8 - 158 km NNE of Darya Boyi, China"},"geometry":{"type":"Point","coordinates":[82.875,39.6351,10]},"id":"us6000tj68"},
{"type":"Feature","properties":{"mag":4.5,"place":"2 km ESE of Mehmand Chak, Pakistan","time":1786159804685,"updated":1786165077539,"tz":null,"url":"https://earthquake.usgs.gov/earthquakes/eventpage/us6000tj67","detail":"https://earthquake.usgs.gov/fdsnws/event/1/query?eventid=us6000tj67&format=geojson","felt":4,"cdi":4.2,"mmi":null,"alert":null,"status":"reviewed","tsunami":0,"sig":313,"net":"us","code":"6000tj67","ids":",us6000tj67,","sources":",us,","types":",dyfi,origin,phase-data,","nst":36,"dmin":0.998,"rms":1.24,"gap":225,"magType":"mb","type":"earthquake","title":"M 4.5 - 2 km ESE of Mehmand Chak, Pakistan"},"geometry":{"type":"Point","coordinates":[73.853,32.7786,10]},"id":"us6000tj67"},
{"type":"Feature","properties":{"mag":4.6,"place":"33 km SSW of Sarangani, Philippines","time":1786157099172,"updated":1786158117040,"tz":null,"url":"https://earthquake.usgs.gov/earthquakes/eventpage/us6000tj65","detail":"https://earthquake.usgs.gov/fdsnws/event/1/query?eventid=us6000tj65&format=geojson","felt":null,"cdi":null,"mmi":null,"alert":null,"status":"reviewed","tsunami":0,"sig":326,"net":"us","code":"6000tj65","ids":",us6000tj65,","sources":",us,","types":",origin,phase-data,","nst":35,"dmin":1.95,"rms":0.63,"gap":113,"magType":"mb","type":"earthquake","title":"M 4.6 - 33 km SSW of Sarangani, Philippines"},"geometry":{"type":"Point","coordinates":[125.3651,5.1189,10]},"id":"us6000tj65"},
{"type":"Feature","properties":{"mag":4.5,"place":"122 km WSW of Gorontalo, Indonesia","time":1786145448420,"updated":1786155024040,"tz":null,"url":"https://earthquake.usgs.gov/earthquakes/eventpage/us6000tj4x","detail":"https://earthquake.usgs.gov/fdsnws/event/1/query?eventid=us6000tj4x&format=geojson","felt":null,"cdi":null,"mmi":null,"alert":null,"status":"reviewed","tsunami":0,"sig":312,"net":"us","code":"6000tj4x","ids":",us6000tj4x,","sources":",us,","types":",origin,phase-data,","nst":21,"dmin":5.696,"rms":0.56,"gap":125,"magType":"mb","type":"earthquake","title":"M 4.5 - 122 km WSW of Gorontalo, Indonesia"},"geometry":{"type":"Point","coordinates":[122.0018,0.2552,198.985]},"id":"us6000tj4x"},
{"type":"Feature","properties":{"mag":5.1,"place":"central East Pacific Rise","time":1786144747914,"updated":1786278170040,"tz":null,"url":"https://earthquake.usgs.gov/earthquakes/eventpage/us6000tjel","detail":"https://earthquake.usgs.gov/fdsnws/event/1/query?eventid=us6000tjel&format=geojson","felt":null,"cdi":null,"mmi":null,"alert":null,"status":"reviewed","tsunami":0,"sig":400,"net":"us","code":"6000tjel","ids":",us6000tjel,","sources":",us,","types":",origin,phase-data,","nst":51,"dmin":13.615,"rms":0.81,"gap":90,"magType":"mww","type":"earthquake","title":"M 5.1 - central East Pacific Rise"},"geometry":{"type":"Point","coordinates":[-112.2713,-13.7382,10]},"id":"us6000tjel"},
{"type":"Feature","properties":{"mag":4.7,"place":"17 km WNW of Yanacancha, Peru","time":1786144283416,"updated":1786259193144,"tz":null,"url":"https://earthquake.usgs.gov/earthquakes/eventpage/us6000tj4s","detail":"https://earthquake.usgs.gov/fdsnws/event/1/query?eventid=us6000tj4s&format=geojson","felt":3,"cdi":4.3,"mmi":null,"alert":null,"status":"reviewed","tsunami":0,"sig":341,"net":"us","code":"6000tj4s","ids":",us6000tj4s,","sources":",us,","types":",dyfi,origin,phase-data,","nst":39,"dmin":1.296,"rms":1.01,"gap":95,"magType":"mb","type":"earthquake","title":"M 4.7 - 17 km WNW of Yanacancha, Peru"},"geometry":{"type":"Point","coordinates":[-75.5241,-12.1235,10]},"id":"us6000tj4s"},
{"type":"Feature","properties":{"mag":4.6,"place":"7 km SSW of Caburan, Philippines","time":1786143229394,"updated":1786153393040,"tz":null,"url":"https://earthquake.usgs.gov/earthquakes/eventpage/us6000tj4i","detail":"https://earthquake.usgs.gov/fdsnws/event/1/query?eventid=us6000tj4i&format=geojson","felt":null,"cdi":null,"mmi":null,"alert":null,"status":"reviewed","tsunami":0,"sig":326,"net":"us","code":"6000tj4i","ids":",us6000tj4i,","sources":",us,","types":",origin,phase-data,","nst":55,"dmin":1.214,"rms":0.82,"gap":103,"magType":"mb","type":"earthquake","title":"M 4.6 - 7 km SSW of Caburan, Philippines"},"geometry":{"type":"Point","coordinates":[125.622,5.8489,139.805]},"id":"us6000tj4i"},
{"type":"Feature","properties":{"mag":4.8,"place":"southern East Pacific Rise","time":1786141179579,"updated":1786144428040,"tz":null,"url":"https://earthquake.usgs.gov/earthquakes/eventpage/us6000tj4f","detail":"https://earthquake.usgs.gov/fdsnws/event/1/query?eventid=us6000tj4f&format=geojson","felt":null,"cdi":null,"mmi":null,"alert":null,"status":"reviewed","tsunami":0,"sig":354,"net":"us","code":"6000tj4f","ids":",us6000tj4f,","sources":",us,","types":",origin,phase-data,","nst":50,"dmin":6.778,"rms":0.69,"gap":147,"magType":"mb","type":"earthquake","title":"M 4.8 - southern East Pacific Rise"},"geometry":{"type":"Point","coordinates":[-113.5805,-21.5086,10]},"id":"us6000tj4f"},
{"type":"Feature","properties":{"mag":4.5,"place":"244 km ESE of Sarangani, Philippines","time":1786132095479,"updated":1786139049040,"tz":null,"url":"https://earthquake.usgs.gov/earthquakes/eventpage/us6000tj2p","detail":"https://earthquake.usgs.gov/fdsnws/event/1/query?eventid=us6000tj2p&format=geojson","felt":null,"cdi":null,"mmi":null,"alert":null,"status":"reviewed","tsunami":0,"sig":312,"net":"us","code":"6000tj2p","ids":",us6000tj2p,","sources":",us,","types":",origin,phase-data,","nst":27,"dmin":8.685,"rms":0.73,"gap":86,"magType":"mb","type":"earthquake","title":"M 4.5 - 244 km ESE of Sarangani, Philippines"},"geometry":{"type":"Point","coordinates":[127.3898,4.3305,10]},"id":"us6000tj2p"},
{"type":"Feature","properties":{"mag":4.5,"place":"23 km ESE of Khandūd, Afghanistan","time":1786114533817,"updated":1786128527040,"tz":null,"url":"https://earthquake.usgs.gov/earthquakes/eventpage/us6000tiyy","detail":"https://earthquake.usgs.gov/fdsnws/event/1/query?eventid=us6000tiyy&format=geojson","felt":null,"cdi":null,"mmi":null,"alert":null,"status":"reviewed","tsunami":0,"sig":312,"net":"us","code":"6000tiyy","ids":",us6000tiyy,","sources":",us,","types":",origin,phase-data,","nst":41,"dmin":1.451,"rms":0.99,"gap":150,"magType":"mb","type":"earthquake","title":"M 4.5 - 23 km ESE of Khandūd, Afghanistan"},"geometry":{"type":"Point","coordinates":[72.5557,36.8607,10]},"id":"us6000tiyy"},
{"type":"Feature","properties":{"mag":5,"place":"49 km SE of Severo-Kuril’sk, Russia","time":1786112490314,"updated":1786113654040,"tz":null,"url":"https://earthquake.usgs.gov/earthquakes/eventpage/us6000tixr","detail":"https://earthquake.usgs.gov/fdsnws/event/1/query?eventid=us6000tixr&format=geojson","felt":null,"cdi":null,"mmi":null,"alert":null,"status":"reviewed","tsunami":0,"sig":385,"net":"us","code":"6000tixr","ids":",us6000tixr,","sources":",us,","types":",origin,phase-data,","nst":64,"dmin":2.759,"rms":0.56,"gap":123,"magType":"mb","type":"earthquake","title":"M 5.0 - 49 km SE of Severo-Kuril’sk, Russia"},"geometry":{"type":"Point","coordinates":[156.7027,50.4235,83.854]},"id":"us6000tixr"},
{"type":"Feature","properties":{"mag":4.8,"place":"108 km NNW of Batang, Indonesia","time":1786111659382,"updated":1786112662040,"tz":null,"url":"https://earthquake.usgs.gov/earthquakes/eventpage/us6000tixn","detail":"https://earthquake.usgs.gov/fdsnws/event/1/query?eventid=us6000tixn&format=geojson","felt":null,"cdi":null,"mmi":null,"alert":null,"status":"reviewed","tsunami":0,"sig":354,"net":"us","code":"6000tixn","ids":",us6000tixn,","sources":",us,","types":",origin,phase-data,","nst":71,"dmin":1.419,"rms":0.9,"gap":47,"magType":"mb","type":"earthquake","title":"M 4.8 - 108 km NNW of Batang, Indonesia"},"geometry":{"type":"Point","coordinates":[110.2192,-5.6385,534.964]},"id":"us6000tixn"},
{"type":"Feature","properties":{"mag":4.6,"place":"51 km WSW of Sarangani, Philippines","time":1786092222850,"updated":1786093230040,"tz":null,"url":"https://earthquake.usgs.gov/earthquakes/eventpage/us6000tiwj","detail":"https://earthquake.usgs.gov/fdsnws/event/1/query?eventid=us6000tiwj&format=geojson","felt":null,"cdi":null,"mmi":null,"alert":null,"status":"reviewed","tsunami":0,"sig":326,"net":"us","code":"6000tiwj","ids":",us6000tiwj,","sources":",us,","types":",origin,phase-data,","nst":38,"dmin":1.957,"rms":0.59,"gap":116,"magType":"mb","type":"earthquake","title":"M 4.6 - 51 km WSW of Sarangani, Philippines"},"geometry":{"type":"Point","coordinates":[125.0613,5.1687,43.488]},"id":"us6000tiwj"},
{"type":"Feature","properties":{"mag":4.5,"place":"114 km SSE of Sarangani, Philippines","time":1786083782987,"updated":1786110601040,"tz":null,"url":"https://earthquake.usgs.gov/earthquakes/eventpage/us6000tiw5","detail":"https://earthquake.usgs.gov/fdsnws/event/1/query?eventid=us6000tiw5&format=geojson","felt":null,"cdi":null,"mmi":null,"alert":null,"status":"reviewed","tsunami":0,"sig":312,"net":"us","code":"6000tiw5","ids":",us6000tiw5,","sources":",us,","types":",origin,phase-data,","nst":48,"dmin":2.589,"rms":1.24,"gap":107,"magType":"mb","type":"earthquake","title":"M 4.5 - 114 km SSE of Sarangani, Philippines"},"geometry":{"type":"Point","coordinates":[125.941,4.4892,102.132]},"id":"us6000tiw5"},
{"type":"Feature","properties":{"mag":5.1,"place":"6 km NNE of Xunchang, China","time":1786079310903,"updated":1786147248927,"tz":null,"url":"https://earthquake.usgs.gov/earthquakes/eventpage/us6000tivz","detail":"https://earthquake.usgs.gov/fdsnws/event/1/query?eventid=us6000tivz&format=geojson","felt":1,"cdi":5.6,"mmi":null,"alert":null,"status":"reviewed","tsunami":0,"sig":401,"net":"us","code":"6000tivz","ids":",us6000tivz,usauto6000tivz,","sources":",us,usauto,","types":",dyfi,internal-moment-tensor,origin,phase-data,","nst":65,"dmin":7.483,"rms":0.91,"gap":73,"magType":"mb","type":"earthquake","title":"M 5.1 - 6 km NNE of Xunchang, China"},"geometry":{"type":"Point","coordinates":[104.7523,28.505,10]},"id":"us6000tivz"},
{"type":"Feature","properties":{"mag":5,"place":"7 km NW of Cabacao, Philippines","time":1786070290013,"updated":1786090292546,"tz":null,"url":"https://earthquake.usgs.gov/earthquakes/eventpage/us6000tivb","detail":"https://earthquake.usgs.gov/fdsnws/event/1/query?eventid=us6000tivb&format=geojson","felt":20,"cdi":4.2,"mmi":null,"alert":null,"status":"reviewed","tsunami":0,"sig":393,"net":"us","code":"6000tivb","ids":",us6000tivb,usauto6000tivb,","sources":",us,usauto,","types":",dyfi,internal-moment-tensor,origin,phase-data,","nst":79,"dmin":7.955,"rms":1.19,"gap":83,"magType":"mb","type":"earthquake","title":"M 5.0 - 7 km NW of Cabacao, Philippines"},"geometry":{"type":"Point","coordinates":[120.6108,13.3855,90.196]},"id":"us6000tivb"},
{"type":"Feature","properties":{"mag":4.5,"place":"29 km S of Mendoza, Argentina","time":1786060838677,"updated":1786127457487,"tz":null,"url":"https://earthquake.usgs.gov/earthquakes/eventpage/us6000tits","detail":"https://earthquake.usgs.gov/fdsnws/event/1/query?eventid=us6000tits&format=geojson","felt":8,"cdi":3.7,"mmi":null,"alert":null,"status":"reviewed","tsunami":0,"sig":314,"net":"us","code":"6000tits","ids":",us6000tits,","sources":",us,","types":",dyfi,origin,phase-data,","nst":36,"dmin":1.111,"rms":1.35,"gap":105,"magType":"mb","type":"earthquake","title":"M 4.5 - 29 km S of Mendoza, Argentina"},"geometry":{"type":"Point","coordinates":[-68.8413,-33.1527,10]},"id":"us6000tits"},
{"type":"Feature","properties":{"mag":4.9,"place":"64 km NE of Mangapapa, New Zealand","time":1786051048824,"updated":1786137780076,"tz":null,"url":"https://earthquake.usgs.gov/earthquakes/eventpage/us6000tiqe","detail":"https://earthquake.usgs.gov/fdsnws/event/1/query?eventid=us6000tiqe&format=geojson","felt":null,"cdi":null,"mmi":4.154,"alert":"green","status":"reviewed","tsunami":0,"sig":369,"net":"us","code":"6000tiqe","ids":",us6000tiqe,","sources":",us,","types":",losspager,origin,phase-data,shakemap,","nst":38,"dmin":0.693,"rms":0.98,"gap":123,"magType":"mb","type":"earthquake","title":"M 4.9 - 64 km NE of Mangapapa, New Zealand"},"geometry":{"type":"Point","coordinates":[178.5415,-38.2308,22.793]},"id":"us6000tiqe"},
{"type":"Feature","properties":{"mag":4.6,"place":"149 km SE of Petropavlovsk-Kamchatsky, Russia","time":1786046844549,"updated":1786049845040,"tz":null,"url":"https://earthquake.usgs.gov/earthquakes/eventpage/us6000tipv","detail":"https://earthquake.usgs.gov/fdsnws/event/1/query?eventid=us6000tipv&format=geojson","felt":null,"cdi":null,"mmi":null,"alert":null,"status":"reviewed","tsunami":0,"sig":326,"net":"us","code":"6000tipv","ids":",us6000tipv,","sources":",us,","types":",origin,phase-data,","nst":92,"dmin":1.8,"rms":0.95,"gap":118,"magType":"mb","type":"earthquake","title":"M 4.6 - 149 km SE of Petropavlovsk-Kamchatsky, Russia"},"geometry":{"type":"Point","coordinates":[160.1111,52.0723,40.732]},"id":"us6000tipv"},
{"type":"Feature","properties":{"mag":5.3,"place":"7 km SSW of Huayucachi, Peru","time":1786042641831,"updated":1786259505211,"tz":null,"url":"https://earthquake.usgs.gov/earthquakes/eventpage/us6000tip9","detail":"https://earthquake.usgs.gov/fdsnws/event/1/query?eventid=us6000tip9&format=geojson","felt":4,"cdi":6.4,"mmi":null,"alert":null,"status":"reviewed","tsunami":0,"sig":435,"net":"us","code":"6000tip9","ids":",us6000tip9,usauto6000tip9,","sources":",us,usauto,","types":",dyfi,internal-moment-tensor,moment-tensor,origin,phase-data,","nst":96,"dmin":1.564,"rms":0.69,"gap":86,"magType":"mww","type":"earthquake","title":"M 5.3 - 7 km SSW of Huayucachi, Peru"},"geometry":{"type":"Point","coordinates":[-75.2574,-12.1948,10]},"id":"us6000tip9"},
{"type":"Feature","properties":{"mag":4.6,"place":"148 km E of Miyako, Japan","time":1786038640068,"updated":1786044697040,"tz":null,"url":"https://earthquake.usgs.gov/earthquakes/eventpage/us6000timi","detail":"https://earthquake.usgs.gov/fdsnws/event/1/query?eventid=us6000timi&format=geojson","felt":null,"cdi":null,"mmi":null,"alert":null,"status":"reviewed","tsunami":0,"sig":326,"net":"us","code":"6000timi","ids":",us6000timi,","sources":",us,","types":",origin,phase-data,","nst":39,"dmin":2.302,"rms":0.68,"gap":123,"magType":"mb","type":"earthquake","title":"M 4.6 - 148 km E of Miyako, Japan"},"geometry":{"type":"Point","coordinates":[143.67,39.6385,10]},"id":"us6000timi"},
{"type":"Feature","properties":{"mag":5.4,"place":"145 km E of Yamada, Japan","time":1786038216862,"updated":1786125032032,"tz":null,"url":"https://earthquake.usgs.gov/earthquakes/eventpage/us6000timf","detail":"https://earthquake.usgs.gov/fdsnws/event/1/query?eventid=us6000timf&format=geojson","felt":null,"cdi":null,"mmi":3.201,"alert":"green","status":"reviewed","tsunami":0,"sig":449,"net":"us","code":"6000timf","ids":",usauto6000timf,us6000timf,","sources":",usauto,us,","types":",internal-moment-tensor,losspager,moment-tensor,origin,phase-data,shakemap,","nst":126,"dmin":2.312,"rms":0.55,"gap":98,"magType":"mww","type":"earthquake","title":"M 5.4 - 145 km E of Yamada, Japan"},"geometry":{"type":"Point","coordinates":[143.6408,39.5829,10]},"id":"us6000timf"},
{"type":"Feature","properties":{"mag":4.9,"place":"195 km SE of Lorengau, Papua New Guinea","time":1786032119722,"updated":1786033200040,"tz":null,"url":"https://earthquake.usgs.gov/earthquakes/eventpage/us6000tikr","detail":"https://earthquake.usgs.gov/fdsnws/event/1/query?eventid=us6000tikr&format=geojson","felt":null,"cdi":null,"mmi":null,"alert":null,"status":"reviewed","tsunami":0,"sig":369,"net":"us","code":"6000tikr","ids":",us6000tikr,","sources":",us,","types":",origin,phase-data,","nst":46,"dmin":1.687,"rms":0.91,"gap":76,"magType":"mb","type":"earthquake","title":"M 4.9 - 195 km SE of Lorengau, Papua New Guinea"},"geometry":{"type":"Point","coordinates":[148.4767,-3.3233,10]},"id":"us6000tikr"},
{"type":"Feature","properties":{"mag":5.1,"place":"110 km W of Buala, Solomon Islands","time":1786023731429,"updated":1786024880040,"tz":null,"url":"https://earthquake.usgs.gov/earthquakes/eventpage/us6000tik6","detail":"https://earthquake.usgs.gov/fdsnws/event/1/query?eventid=us6000tik6&format=geojson","felt":null,"cdi":null,"mmi":null,"alert":null,"status":"reviewed","tsunami":0,"sig":400,"net":"us","code":"6000tik6","ids":",usauto6000tik6,us6000tik6,","sources":",usauto,us,","types":",internal-moment-tensor,origin,phase-data,","nst":77,"dmin":1.952,"rms":0.73,"gap":45,"magType":"mww","type":"earthquake","title":"M 5.1 - 110 km W of Buala, Solomon Islands"},"geometry":{"type":"Point","coordinates":[158.5995,-8.0025,54.348]},"id":"us6000tik6"},
{"type":"Feature","properties":{"mag":4.6,"place":"5 km ENE of Matsubase, Japan","time":1786013364271,"updated":1786025184872,"tz":null,"url":"https://earthquake.usgs.gov/earthquakes/eventpage/us6000tijg","detail":"https://earthquake.usgs.gov/fdsnws/event/1/query?eventid=us6000tijg&format=geojson","felt":3,"cdi":3.8,"mmi":null,"alert":null,"status":"reviewed","tsunami":0,"sig":327,"net":"us","code":"6000tijg","ids":",us6000tijg,","sources":",us,","types":",dyfi,origin,phase-data,","nst":51,"dmin":1.171,"rms":1.03,"gap":109,"magType":"mb","type":"earthquake","title":"M 4.6 - 5 km ENE of Matsubase, Japan"},"geometry":{"type":"Point","coordinates":[130.7231,32.6611,10]},"id":"us6000tijg"},
{"type":"Feature","properties":{"mag":4.9,"place":"128 km WSW of Port Orford, Oregon","time":1786010140381,"updated":1786442745651,"tz":null,"url":"https://earthquake.usgs.gov/earthquakes/eventpage/us6000tij5","detail":"https://earthquake.usgs.gov/fdsnws/event/1/query?eventid=us6000tij5&format=geojson","felt":5,"cdi":2.2,"mmi":null,"alert":null,"status":"reviewed","tsunami":0,"sig":370,"net":"us","code":"6000tij5","ids":",us6000tij5,ew1786010160,","sources":",us,ew,","types":",dyfi,event-sequence,moment-tensor,oaf,origin,phase-data,shake-alert,","nst":23,"dmin":1.226,"rms":0.38,"gap":234,"magType":"mww","type":"earthquake","title":"M 4.9 - 128 km WSW of Port Orford, Oregon"},"geometry":{"type":"Point","coordinates":[-125.9976,42.4079,10]},"id":"us6000tij5"},
{"type":"Feature","properties":{"mag":4.6,"place":"40 km WNW of Houma, Tonga","time":1785998645143,"updated":1785999703040,"tz":null,"url":"https://earthquake.usgs.gov/earthquakes/eventpage/us6000tiie","detail":"https://earthquake.usgs.gov/fdsnws/event/1/query?eventid=us6000tiie&format=geojson","felt":null,"cdi":null,"mmi":null,"alert":null,"status":"reviewed","tsunami":0,"sig":326,"net":"us","code":"6000tiie","ids":",us6000tiie,","sources":",us,","types":",origin,phase-data,","nst":46,"dmin":5.75,"rms":0.76,"gap":123,"magType":"mb","type":"earthquake","title":"M 4.6 - 40 km WNW of Houma, Tonga"},"geometry":{"type":"Point","coordinates":[-175.6733,-21.0594,126.513]},"id":"us6000tiie"},
{"type":"Feature","properties":{"mag":4.6,"place":"48 km WSW of Sarangani, Philippines","time":1785985931368,"updated":1785986853040,"tz":null,"url":"https://earthquake.usgs.gov/earthquakes/eventpage/us6000tihf","detail":"https://earthquake.usgs.gov/fdsnws/event/1/query?eventid=us6000tihf&format=geojson","felt":null,"cdi":null,"mmi":null,"alert":null,"status":"reviewed","tsunami":0,"sig":326,"net":"us","code":"6000tihf","ids":",us6000tihf,","sources":",us,","types":",origin,phase-data,","nst":26,"dmin":1.914,"rms":0.63,"gap":123,"magType":"mb","type":"earthquake","title":"M 4.6 - 48 km WSW of Sarangani, Philippines"},"geometry":{"type":"Point","coordinates":[125.0756,5.2096,35]},"id":"us6000tihf"},
{"type":"Feature","properties":{"mag":4.8,"place":"62 km NNE of Shi Yomi, India","time":1785975317634,"updated":1785982166479,"tz":null,"url":"https://earthquake.usgs.gov/earthquakes/eventpage/us6000tigl","detail":"https://earthquake.usgs.gov/fdsnws/event/1/query?eventid=us6000tigl&format=geojson","felt":2,"cdi":3.8,"mmi":null,"alert":null,"status":"reviewed","tsunami":0,"sig":355,"net":"us","code":"6000tigl","ids":",us6000tigl,","sources":",us,","types":",dyfi,origin,phase-data,","nst":56,"dmin":7.792,"rms":1,"gap":91,"magType":"mb","type":"earthquake","title":"M 4.8 - 62 km NNE of Shi Yomi, India"},"geometry":{"type":"Point","coordinates":[94.6765,29.0283,10]},"id":"us6000tigl"},
{"type":"Feature","properties":{"mag":4.9,"place":"15 km WSW of Honmachi, Japan","time":1785970764692,"updated":1785984637354,"tz":null,"url":"https://earthquake.usgs.gov/earthquakes/eventpage/us6000tig8","detail":"https://earthquake.usgs.gov/fdsnws/event/1/query?eventid=us6000tig8&format=geojson","felt":7,"cdi":3.8,"mmi":null,"alert":null,"status":"reviewed","tsunami":0,"sig":372,"net":"us","code":"6000tig8","ids":",us6000tig8,usauto6000tig8,","sources":",us,usauto,","types":",dyfi,internal-moment-tensor,origin,phase-data,","nst":69,"dmin":0.934,"rms":0.78,"gap":100,"magType":"mww","type":"earthquake","title":"M 4.9 - 15 km WSW of Honmachi, Japan"},"geometry":{"type":"Point","coordinates":[130.455,32.4463,10]},"id":"us6000tig8"},
{"type":"Feature","properties":{"mag":4.9,"place":"42 km SW of Sarangani, Philippines","time":1785967904587,"updated":1785981595040,"tz":null,"url":"https://earthquake.usgs.gov/earthquakes/eventpage/us6000tifh","detail":"https://earthquake.usgs.gov/fdsnws/event/1/query?eventid=us6000tifh&format=geojson","felt":null,"cdi":null,"mmi":null,"alert":null,"status":"reviewed","tsunami":0,"sig":369,"net":"us","code":"6000tifh","ids":",us6000tifh,","sources":",us,","types":",origin,phase-data,","nst":43,"dmin":1.999,"rms":0.58,"gap":122,"magType":"mb","type":"earthquake","title":"M 4.9 - 42 km SW of Sarangani, Philippines"},"geometry":{"type":"Point","coordinates":[125.2468,5.0849,10]},"id":"us6000tifh"},
{"type":"Feature","properties":{"mag":5.6,"place":"40 km SW of Sarangani, Philippines","time":1785966087717,"updated":1786052957975,"tz":null,"url":"https://earthquake.usgs.gov/earthquakes/eventpage/us6000tif5","detail":"https://earthquake.usgs.gov/fdsnws/event/1/query?eventid=us6000tif5&format=geojson","felt":14,"cdi":5.4,"mmi":4.421,"alert":"green","status":"reviewed","tsunami":0,"sig":490,"net":"us","code":"6000tif5","ids":",us6000tif5,usauto6000tif5,","sources":",us,usauto,","types":",dyfi,ground-failure,internal-moment-tensor,losspager,moment-tensor,origin,phase-data,shakemap,","nst":141,"dmin":1.96,"rms":0.7,"gap":43,"magType":"mww","type":"earthquake","title":"M 5.6 - 40 km SW of Sarangani, Philippines"},"geometry":{"type":"Point","coordinates":[125.227,5.1283,10]},"id":"us6000tif5"},
{"type":"Feature","properties":{"mag":4.6,"place":"99 km WSW of Houma, Tonga","time":1785963578899,"updated":1785967389040,"tz":null,"url":"https://earthquake.usgs.gov/earthquakes/eventpage/us6000tiex","detail":"https://earthquake.usgs.gov/fdsnws/event/1/query?eventid=us6000tiex&format=geojson","felt":null,"cdi":null,"mmi":null,"alert":null,"status":"reviewed","tsunami":0,"sig":326,"net":"us","code":"6000tiex","ids":",us6000tiex,","sources":",us,","types":",origin,phase-data,","nst":71,"dmin":6.358,"rms":0.68,"gap":111,"magType":"mb","type":"earthquake","title":"M 4.6 - 99 km WSW of Houma, Tonga"},"geometry":{"type":"Point","coordinates":[-176.1885,-21.5171,137.247]},"id":"us6000tiex"},
{"type":"Feature","properties":{"mag":5.2,"place":"31 km SSW of Ialibu, Papua New Guinea","time":1785959186861,"updated":1785967528930,"tz":null,"url":"https://earthquake.usgs.gov/earthquakes/eventpage/us6000tie5","detail":"https://earthquake.usgs.gov/fdsnws/event/1/query?eventid=us6000tie5&format=geojson","felt":1,"cdi":2.2,"mmi":null,"alert":null,"status":"reviewed","tsunami":0,"sig":416,"net":"us","code":"6000tie5","ids":",us6000tie5,","sources":",us,","types":",dyfi,origin,phase-data,","nst":60,"dmin":4.357,"rms":0.84,"gap":38,"magType":"mb","type":"earthquake","title":"M 5.2 - 31 km SSW of Ialibu, Papua New Guinea"},"geometry":{"type":"Point","coordinates":[143.8444,-6.5225,10.028]},"id":"us6000tie5"},
{"type":"Feature","properties":{"mag":4.7,"place":"31 km SSW of Sarangani, Philippines","time":1785958346748,"updated":1786123061040,"tz":null,"url":"https://earthquake.usgs.gov/earthquakes/eventpage/us6000tidz","detail":"https://earthquake.usgs.gov/fdsnws/event/1/query?eventid=us6000tidz&format=geojson","felt":null,"cdi":null,"mmi":null,"alert":null,"status":"reviewed","tsunami":0,"sig":340,"net":"us","code":"6000tidz","ids":",us6000tidz,","sources":",us,","types":",origin,phase-data,","nst":48,"dmin":1.942,"rms":0.68,"gap":109,"magType":"mb","type":"earthquake","title":"M 4.7 - 31 km SSW of Sarangani, Philippines"},"geometry":{"type":"Point","coordinates":[125.3857,5.1249,10.014]},"id":"us6000tidz"},
{"type":"Feature","properties":{"mag":5.3,"place":"62 km W of Tobelo, Indonesia","time":1785948618349,"updated":1785950182363,"tz":null,"url":"https://earthquake.usgs.gov/earthquakes/eventpage/us6000tics","detail":"https://earthquake.usgs.gov/fdsnws/event/1/query?eventid=us6000tics&format=geojson","felt":1,"cdi":2.2,"mmi":null,"alert":null,"status":"reviewed","tsunami":0,"sig":432,"net":"us","code":"6000tics","ids":",us6000tics,usauto6000tics,","sources":",us,usauto,","types":",dyfi,internal-moment-tensor,moment-tensor,origin,phase-data,","nst":85,"dmin":5.567,"rms":0.65,"gap":36,"magType":"mww","type":"earthquake","title":"M 5.3 - 62 km W of Tobelo, Indonesia"},"geometry":{"type":"Point","coordinates":[127.454,1.7901,115.65]},"id":"us6000tics"},
{"type":"Feature","properties":{"mag":4.7,"place":"127 km E of Bitung, Indonesia","time":1785939410054,"updated":1785948965040,"tz":null,"url":"https://earthquake.usgs.gov/earthquakes/eventpage/us6000tial","detail":"https://earthquake.usgs.gov/fdsnws/event/1/query?eventid=us6000tial&format=geojson","felt":null,"cdi":null,"mmi":null,"alert":null,"status":"reviewed","tsunami":0,"sig":340,"net":"us","code":"6000tial","ids":",us6000tial,","sources":",us,","types":",origin,phase-data,","nst":35,"dmin":7.3,"rms":0.58,"gap":62,"magType":"mb","type":"earthquake","title":"M 4.7 - 127 km E of Bitung, Indonesia"},"geometry":{"type":"Point","coordinates":[126.2646,1.2938,10]},"id":"us6000tial"},
{"type":"Feature","properties":{"mag":5,"place":"60 km NNE of Shi Yomi, India","time":1785924369955,"updated":1785938361452,"tz":null,"url":"https://earthquake.usgs.gov/earthquakes/eventpage/us6000ti9w","detail":"https://earthquake.usgs.gov/fdsnws/event/1/query?eventid=us6000ti9w&format=geojson","felt":3,"cdi":2,"mmi":null,"alert":null,"status":"reviewed","tsunami":0,"sig":385,"net":"us","code":"6000ti9w","ids":",us6000ti9w,","sources":",us,","types":",dyfi,origin,phase-data,","nst":68,"dmin":7.766,"rms":0.8,"gap":59,"magType":"mb","type":"earthquake","title":"M 5.0 - 60 km NNE of Shi Yomi, India"},"geometry":{"type":"Point","coordinates":[94.681,29.0027,10]},"id":"us6000ti9w"},
{"type":"Feature","properties":{"mag":4.8,"place":"45 km SSW of Sarangani, Philippines","time":1785921427881,"updated":1785923722447,"tz":null,"url":"https://earthquake.usgs.gov/earthquakes/eventpage/us6000ti9k","detail":"https://earthquake.usgs.gov/fdsnws/event/1/query?eventid=us6000ti9k&format=geojson","felt":1,"cdi":2,"mmi":null,"alert":null,"status":"reviewed","tsunami":0,"sig":355,"net":"us","code":"6000ti9k","ids":",us6000ti9k,","sources":",us,","types":",dyfi,origin,phase-data,","nst":42,"dmin":2.032,"rms":0.77,"gap":101,"magType":"mb","type":"earthquake","title":"M 4.8 - 45 km SSW of Sarangani, Philippines"},"geometry":{"type":"Point","coordinates":[125.2544,5.0507,35]},"id":"us6000ti9k"},
{"type":"Feature","properties":{"mag":6.3,"place":"south of the Kermadec Islands","time":1785915807317,"updated":1786002698507,"tz":null,"url":"https://earthquake.usgs.gov/earthquakes/eventpage/us6000ti8i","detail":"https://earthquake.usgs.gov/fdsnws/event/1/query?eventid=us6000ti8i&format=geojson","felt":14,"cdi":3.1,"mmi":3.316,"alert":"green","status":"reviewed","tsunami":0,"sig":615,"net":"us","code":"6000ti8i","ids":",us6000ti8i,attjadgb,","sources":",us,at,","types":",dyfi,ground-failure,internal-origin,losspager,moment-tensor,origin,phase-data,shakemap,","nst":80,"dmin":3.866,"rms":1.04,"gap":27,"magType":"mww","type":"earthquake","title":"M 6.3 - south of the Kermadec Islands"},"geometry":{"type":"Point","coordinates":[179.4727,-33.8063,226.084]},"id":"us6000ti8i"},
{"type":"Feature","properties":{"mag":5.2,"place":"Auckland Islands, New Zealand region","time":1785912264701,"updated":1785913760040,"tz":null,"url":"https://earthquake.usgs.gov/earthquakes/eventpage/us6000ti85","detail":"https://earthquake.usgs.gov/fdsnws/event/1/query?eventid=us6000ti85&format=geojson","felt":null,"cdi":null,"mmi":null,"alert":null,"status":"reviewed","tsunami":0,"sig":416,"net":"us","code":"6000ti85","ids":",us6000ti85,","sources":",us,","types":",origin,phase-data,","nst":97,"dmin":3.759,"rms":0.96,"gap":57,"magType":"mb","type":"earthquake","title":"M 5.2 - Auckland Islands, New Zealand region"},"geometry":{"type":"Point","coordinates":[164.0845,-49.5336,21.906]},"id":"us6000ti85"},
{"type":"Feature","properties":{"mag":4.9,"place":"54 km ESE of Sarangani, Philippines","time":1785909422837,"updated":1785915257040,"tz":null,"url":"https://earthquake.usgs.gov/earthquakes/eventpage/us6000ti7z","detail":"https://earthquake.usgs.gov/fdsnws/event/1/query?eventid=us6000ti7z&format=geojson","felt":null,"cdi":null,"mmi":null,"alert":null,"status":"reviewed","tsunami":0,"sig":369,"net":"us","code":"6000ti7z","ids":",us6000ti7z,","sources":",us,","types":",origin,phase-data,","nst":46,"dmin":1.932,"rms":0.74,"gap":130,"magType":"mb","type":"earthquake","title":"M 4.9 - 54 km ESE of Sarangani, Philippines"},"geometry":{"type":"Point","coordinates":[125.8812,5.1481,43.708]},"id":"us6000ti7z"},
{"type":"Feature","properties":{"mag":4.6,"place":"84 km ESE of Sarangani, Philippines","time":1785909234201,"updated":1785914519040,"tz":null,"url":"https://earthquake.usgs.gov/earthquakes/eventpage/us6000ti7y","detail":"https://earthquake.usgs.gov/fdsnws/event/1/query?eventid=us6000ti7y&format=geojson","felt":null,"cdi":null,"mmi":null,"alert":null,"status":"reviewed","tsunami":0,"sig":326,"net":"us","code":"6000ti7y","ids":",us6000ti7y,","sources":",us,","types":",origin,phase-data,","nst":43,"dmin":2.077,"rms":0.81,"gap":105,"magType":"mb","type":"earthquake","title":"M 4.6 - 84 km ESE of Sarangani, Philippines"},"geometry":{"type":"Point","coordinates":[126.1378,5.0554,35]},"id":"us6000ti7y"},
{"type":"Feature","properties":{"mag":4.9,"place":"45 km SW of Sarangani, Philippines","time":1785906784282,"updated":1785908417301,"tz":null,"url":"https://earthquake.usgs.gov/earthquakes/eventpage/us6000ti7t","detail":"https://earthquake.usgs.gov/fdsnws/event/1/query?eventid=us6000ti7t&format=geojson","felt":1,"cdi":3.4,"mmi":null,"alert":null,"status":"reviewed","tsunami":0,"sig":370,"net":"us","code":"6000ti7t","ids":",us6000ti7t,","sources":",us,","types":",dyfi,origin,phase-data,","nst":36,"dmin":2.007,"rms":0.88,"gap":125,"magType":"mb","type":"earthquake","title":"M 4.9 - 45 km SW of Sarangani, Philippines"},"geometry":{"type":"Point","coordinates":[125.1979,5.0859,29.668]},"id":"us6000ti7t"},
{"type":"Feature","properties":{"mag":4.8,"place":"64 km SW of Sarangani, Philippines","time":1785904451505,"updated":1785905292040,"tz":null,"url":"https://earthquake.usgs.gov/earthquakes/eventpage/us6000ti7f","detail":"https://earthquake.usgs.gov/fdsnws/event/1/query?eventid=us6000ti7f&format=geojson","felt":null,"cdi":null,"mmi":null,"alert":null,"status":"reviewed","tsunami":0,"sig":354,"net":"us","code":"6000ti7f","ids":",us6000ti7f,","sources":",us,","types":",origin,phase-data,","nst":22,"dmin":2.096,"rms":0.85,"gap":123,"magType":"mb","type":"earthquake","title":"M 4.8 - 64 km SW of Sarangani, Philippines"},"geometry":{"type":"Point","coordinates":[125.0047,5.0397,35]},"id":"us6000ti7f"},
{"type":"Feature","properties":{"mag":5.2,"place":"31 km S of Sarangani, Philippines","time":1785903904586,"updated":1785938000157,"tz":null,"url":"https://earthquake.usgs.gov/earthquakes/eventpage/us6000ti71","detail":"https://earthquake.usgs.gov/fdsnws/event/1/query?eventid=us6000ti71&format=geojson","felt":7,"cdi":4.3,"mmi":null,"alert":null,"status":"reviewed","tsunami":0,"sig":419,"net":"us","code":"6000ti71","ids":",us6000ti71,","sources":",us,","types":",dyfi,origin,phase-data,","nst":45,"dmin":1.937,"rms":1.29,"gap":88,"magType":"mb","type":"earthquake","title":"M 5.2 - 31 km S of Sarangani, Philippines"},"geometry":{"type":"Point","coordinates":[125.412,5.1275,35]},"id":"us6000ti71"},
{"type":"Feature","properties":{"mag":5.1,"place":"238 km SSW of Río Grande, Panama","time":1785903561769,"updated":1785936254560,"tz":null,"url":"https://earthquake.usgs.gov/earthquakes/eventpage/us6000ti6z","detail":"https://earthquake.usgs.gov/fdsnws/event/1/query?eventid=us6000ti6z&format=geojson","felt":1,"cdi":2,"mmi":null,"alert":null,"status":"reviewed","tsunami":0,"sig":400,"net":"us","code":"6000ti6z","ids":",us6000ti6z,usauto6000ti6z,","sources":",us,usauto,","types":",dyfi,internal-moment-tensor,origin,phase-data,","nst":47,"dmin":3.439,"rms":1.04,"gap":142,"magType":"mww","type":"earthquake","title":"M 5.1 - 238 km SSW of Río Grande, Panama"},"geometry":{"type":"Point","coordinates":[-82.4726,5.8882,10]},"id":"us6000ti6z"},
{"type":"Feature","properties":{"mag":6.3,"place":"32 km SW of Sarangani, Philippines","time":1785903246625,"updated":1786442549210,"tz":null,"url":"https://earthquake.usgs.gov/earthquakes/eventpage/us6000ti6x","detail":"https://earthquake.usgs.gov/fdsnws/event/1/query?eventid=us6000ti6x&format=geojson","felt":66,"cdi":7.5,"mmi":6.822,"alert":"green","status":"reviewed","tsunami":0,"sig":660,"net":"us","code":"6000ti6x","ids":",us6000ti6x,usauto6000ti6x,","sources":",us,usauto,","types":",dyfi,ground-failure,internal-moment-tensor,losspager,moment-tensor,origin,phase-data,shakemap,","nst":83,"dmin":1.9,"rms":1.43,"gap":27,"magType":"mww","type":"earthquake","title":"M 6.3 - 32 km SW of Sarangani, Philippines"},"geometry":{"type":"Point","coordinates":[125.276,5.1812,10]},"id":"us6000ti6x"},
{"type":"Feature","properties":{"mag":4.9,"place":"Banda Sea","time":1785899767150,"updated":1785900646040,"tz":null,"url":"https://earthquake.usgs.gov/earthquakes/eventpage/us6000ti6f","detail":"https://earthquake.usgs.gov/fdsnws/event/1/query?eventid=us6000ti6f&format=geojson","felt":null,"cdi":null,"mmi":null,"alert":null,"status":"reviewed","tsunami":0,"sig":369,"net":"us","code":"6000ti6f","ids":",us6000ti6f,","sources":",us,","types":",origin,phase-data,","nst":52,"dmin":2.188,"rms":0.76,"gap":80,"magType":"mb","type":"earthquake","title":"M 4.9 - Banda Sea"},"geometry":{"type":"Point","coordinates":[128.9345,-6.4991,234.999]},"id":"us6000ti6f"},
{"type":"Feature","properties":{"mag":4.6,"place":"36 km ESE of Severo-Kuril’sk, Russia","time":1785898015420,"updated":1785899254040,"tz":null,"url":"https://earthquake.usgs.gov/earthquakes/eventpage/us6000ti6d","detail":"https://earthquake.usgs.gov/fdsnws/event/1/query?eventid=us6000ti6d&format=geojson","felt":null,"cdi":null,"mmi":null,"alert":null,"status":"reviewed","tsunami":0,"sig":326,"net":"us","code":"6000ti6d","ids":",us6000ti6d,","sources":",us,","types":",origin,phase-data,","nst":86,"dmin":2.707,"rms":0.71,"gap":135,"magType":"mb","type":"earthquake","title":"M 4.6 - 36 km ESE of Severo-Kuril’sk, Russia"},"geometry":{"type":"Point","coordinates":[156.568,50.4973,73.257]},"id":"us6000ti6d"},
{"type":"Feature","properties":{"mag":4.8,"place":"55 km WSW of Monywa, Burma (Myanmar)","time":1785888717782,"updated":1785902838240,"tz":null,"url":"https://earthquake.usgs.gov/earthquakes/eventpage/us6000ti5u","detail":"https://earthquake.usgs.gov/fdsnws/event/1/query?eventid=us6000ti5u&format=geojson","felt":2,"cdi":3.4,"mmi":null,"alert":null,"status":"reviewed","tsunami":0,"sig":355,"net":"us","code":"6000ti5u","ids":",us6000ti5u,","sources":",us,","types":",dyfi,origin,phase-data,","nst":119,"dmin":0.738,"rms":0.64,"gap":26,"magType":"mb","type":"earthquake","title":"M 4.8 - 55 km WSW of Monywa, Burma (Myanmar)"},"geometry":{"type":"Point","coordinates":[94.6478,21.9032,103.392]},"id":"us6000ti5u"}],"bbox":[-179.8704,-49.5336,9.688,179.4727,62.269,655.67]}