{"type":"FeatureCollection","metadata":{"generated":1786498848000,"url":"https://earthquake.usgs.gov/fdsnws/event/1/query?format=geojson&starttime=2026-08-11&minmagnitude=4.5","title":"USGS Earthquakes","status":200,"api":"2.7.0","count":17},"features":[{"type":"Feature","properties":{"mag":4.8,"place":"166 km SSW of Abepura, Indonesia","time":1786491195174,"updated":1786492242040,"tz":null,"url":"https://earthquake.usgs.gov/earthquakes/eventpage/us6000tk41","detail":"https://earthquake.usgs.gov/fdsnws/event/1/query?eventid=us6000tk41&format=geojson","felt":null,"cdi":null,"mmi":null,"alert":null,"status":"reviewed","tsunami":0,"sig":354,"net":"us","code":"6000tk41","ids":",us6000tk41,","sources":",us,","types":",origin,phase-data,","nst":23,"dmin":1.595,"rms":0.97,"gap":123,"magType":"mb","type":"earthquake","title":"M 4.8 - 166 km SSW of Abepura, Indonesia"},"geometry":{"type":"Point","coordinates":[140.0289,-3.971,37.029]},"id":"us6000tk41"},
{"type":"Feature","properties":{"mag":4.8,"place":"81 km ENE of Mutsu, Japan","time":1786484753951,"updated":1786498808040,"tz":null,"url":"https://earthquake.usgs.gov/earthquakes/eventpage/us6000tk3b","detail":"https://earthquake.usgs.gov/fdsnws/event/1/query?eventid=us6000tk3b&format=geojson","felt":null,"cdi":null,"mmi":null,"alert":null,"status":"reviewed","tsunami":0,"sig":354,"net":"us","code":"6000tk3b","ids":",us6000tk3b,","sources":",us,","types":",origin,phase-data,","nst":50,"dmin":0.895,"rms":0.71,"gap":115,"magType":"mww","type":"earthquake","title":"M 4.8 - 81 km ENE of Mutsu, Japan"},"geometry":{"type":"Point","coordinates":[142.1187,41.5705,59.553]},"id":"us6000tk3b"},
{"type":"Feature","properties":{"mag":4.6,"place":"14 km NE of Wana, Pakistan","time":1786484224529,"updated":1786498185040,"tz":null,"url":"https://earthquake.usgs.gov/earthquakes/eventpage/us6000tk33","detail":"https://earthquake.usgs.gov/fdsnws/event/1/query?eventid=us6000tk33&format=geojson","felt":null,"cdi":null,"mmi":null,"alert":null,"status":"reviewed","tsunami":0,"sig":326,"net":"us","code":"6000tk33","ids":",us6000tk33,","sources":",us,","types":",origin,phase-data,","nst":39,"dmin":2.171,"rms":0.62,"gap":102,"magType":"mb","type":"earthquake","title":"M 4.6 - 14 km NE of Wana, Pakistan"},"geometry":{"type":"Point","coordinates":[69.6826,32.3871,43.011]},"id":"us6000tk33"},
{"type":"Feature","properties":{"mag":5,"place":"89 km ESE of Kokopo, Papua New Guinea","time":1786480288580,"updated":1786481268040,"tz":null,"url":"https://earthquake.usgs.gov/earthquakes/eventpage/us6000tk29","detail":"https://earthquake.usgs.gov/fdsnws/event/1/query?eventid=us6000tk29&format=geojson","felt":null,"cdi":null,"mmi":null,"alert":null,"status":"reviewed","tsunami":0,"sig":385,"net":"us","code":"6000tk29","ids":",usauto6000tk29,us6000tk29,","sources":",usauto,us,","types":",internal-moment-tensor,origin,phase-data,","nst":121,"dmin":0.975,"rms":1,"gap":80,"magType":"mww","type":"earthquake","title":"M 5.0 - 89 km ESE of Kokopo, Papua New Guinea"},"geometry":{"type":"Point","coordinates":[152.9875,-4.7193,68.887]},"id":"us6000tk29"},
{"type":"Feature","properties":{"mag":5.1,"place":"51 km E of Tobelo, Indonesia","time":1786479258452,"updated":1786480198040,"tz":null,"url":"https://earthquake.usgs.gov/earthquakes/eventpage/us6000tk1y","detail":"https://earthquake.usgs.gov/fdsnws/event/1/query?eventid=us6000tk1y&format=geojson","felt":null,"cdi":null,"mmi":null,"alert":null,"status":"reviewed","tsunami":0,"sig":400,"net":"us","code":"6000tk1y","ids":",us6000tk1y,","sources":",us,","types":",origin,phase-data,","nst":68,"dmin":5.945,"rms":0.97,"gap":103,"magType":"mb","type":"earthquake","title":"M 5.1 - 51 km E of Tobelo, Indonesia"},"geometry":{"type":"Point","coordinates":[128.4742,1.7064,10]},"id":"us6000tk1y"},
{"type":"Feature","properties":{"mag":4.9,"place":"149 km SSE of Port Blair, India","time":1786478141269,"updated":1786479155040,"tz":null,"url":"https://earthquake.usgs.gov/earthquakes/eventpage/us6000tk1m","detail":"https://earthquake.usgs.gov/fdsnws/event/1/query?eventid=us6000tk1m&format=geojson","felt":null,"cdi":null,"mmi":null,"alert":null,"status":"reviewed","tsunami":0,"sig":369,"net":"us","code":"6000tk1m","ids":",us6000tk1m,","sources":",us,","types":",origin,phase-data,","nst":67,"dmin":6.472,"rms":0.81,"gap":43,"magType":"mb","type":"earthquake","title":"M 4.9 - 149 km SSE of Port Blair, India"},"geometry":{"type":"Point","coordinates":[93.4884,10.5351,113.482]},"id":"us6000tk1m"},
{"type":"Feature","properties":{"mag":4.6,"place":"118 km ESE of Neiafu, Tonga","time":1786473919680,"updated":1786477899040,"tz":null,"url":"https://earthquake.usgs.gov/earthquakes/eventpage/us6000tk14","detail":"https://earthquake.usgs.gov/fdsnws/event/1/query?eventid=us6000tk14&format=geojson","felt":null,"cdi":null,"mmi":null,"alert":null,"status":"reviewed","tsunami":0,"sig":326,"net":"us","code":"6000tk14","ids":",us6000tk14,","sources":",us,","types":",origin,phase-data,","nst":23,"dmin":2.86,"rms":0.92,"gap":104,"magType":"mb","type":"earthquake","title":"M 4.6 - 118 km ESE of Neiafu, Tonga"},"geometry":{"type":"Point","coordinates":[-172.9513,-19.0842,10]},"id":"us6000tk14"},
{"type":"Feature","properties":{"mag":4.6,"place":"Western Australia","time":1786471825542,"updated":1786477015040,"tz":null,"url":"https://earthquake.usgs.gov/earthquakes/eventpage/us6000tk0u","detail":"https://earthquake.usgs.gov/fdsnws/event/1/query?eventid=us6000tk0u&format=geojson","felt":null,"cdi":null,"mmi":null,"alert":null,"status":"reviewed","tsunami":0,"sig":326,"net":"us","code":"6000tk0u","ids":",us6000tk0u,","sources":",us,","types":",origin,phase-data,","nst":39,"dmin":1.505,"rms":0.37,"gap":122,"magType":"mb","type":"earthquake","title":"M 4.6 - Western Australia"},"geometry":{"type":"Point","coordinates":[126.5708,-31.5799,10]},"id":"us6000tk0u"},
{"type":"Feature","properties":{"mag":4.6,"place":"7 km W of Lunca Jariștei, Romania","time":1786468875884,"updated":1786473927650,"tz":null,"url":"https://earthquake.usgs.gov/earthquakes/eventpage/us6000tk0c","detail":"https://earthquake.usgs.gov/fdsnws/event/1/query?eventid=us6000tk0c&format=geojson","felt":2,"cdi":2.2,"mmi":null,"alert":null,"status":"reviewed","tsunami":0,"sig":326,"net":"us","code":"6000tk0c","ids":",us6000tk0c,","sources":",us,","types":",dyfi,origin,phase-data,","nst":84,"dmin":1.901,"rms":0.91,"gap":34,"magType":"mb","type":"earthquake","title":"M 4.6 - 7 km W of Lunca Jariștei, Romania"},"geometry":{"type":"Point","coordinates":[26.1598,45.487,140.003]},"id":"us6000tk0c"},
{"type":"Feature","properties":{"mag":5,"place":"107 km WNW of Kerema, Papua New Guinea","time":1786467978902,"updated":1786469649040,"tz":null,"url":"https://earthquake.usgs.gov/earthquakes/eventpage/us6000tk0a","detail":"https://earthquake.usgs.gov/fdsnws/event/1/query?eventid=us6000tk0a&format=geojson","felt":null,"cdi":null,"mmi":null,"alert":null,"status":"reviewed","tsunami":0,"sig":385,"net":"us","code":"6000tk0a","ids":",us6000tk0a,","sources":",us,","types":",origin,phase-data,","nst":53,"dmin":2.877,"rms":0.89,"gap":98,"magType":"mb","type":"earthquake","title":"M 5.0 - 107 km WNW of Kerema, Papua New Guinea"},"geometry":{"type":"Point","coordinates":[144.8583,-7.6341,10]},"id":"us6000tk0a"},
{"type":"Feature","properties":{"mag":4.8,"place":"Pulau Pulau Tanimbar, Indonesia","time":1786452312884,"updated":1786455088040,"tz":null,"url":"https://earthquake.usgs.gov/earthquakes/eventpage/us6000tjxa","detail":"https://earthquake.usgs.gov/fdsnws/event/1/query?eventid=us6000tjxa&format=geojson","felt":null,"cdi":null,"mmi":null,"alert":null,"status":"reviewed","tsunami":0,"sig":354,"net":"us","code":"6000tjxa","ids":",us6000tjxa,","sources":",us,","types":",origin,phase-data,","nst":53,"dmin":2.897,"rms":0.74,"gap":86,"magType":"mb","type":"earthquake","title":"M 4.8 - Pulau Pulau Tanimbar, Indonesia"},"geometry":{"type":"Point","coordinates":[130.3922,-7.397,30.609]},"id":"us6000tjxa"},
{"type":"Feature","properties":{"mag":4.5,"place":"264 km SW of Severo-Kuril’sk, Russia","time":1786450421963,"updated":1786463740040,"tz":null,"url":"https://earthquake.usgs.gov/earthquakes/eventpage/us6000tjx7","detail":"https://earthquake.usgs.gov/fdsnws/event/1/query?eventid=us6000tjx7&format=geojson","felt":null,"cdi":null,"mmi":null,"alert":null,"status":"reviewed","tsunami":0,"sig":312,"net":"us","code":"6000tjx7","ids":",us6000tjx7,","sources":",us,","types":",origin,phase-data,","nst":78,"dmin":4.781,"rms":0.63,"gap":143,"magType":"mb","type":"earthquake","title":"M 4.5 - 264 km SW of Severo-Kuril’sk, Russia"},"geometry":{"type":"Point","coordinates":[153.1425,49.2842,174.304]},"id":"us6000tjx7"},
{"type":"Feature","properties":{"mag":4.6,"place":"Banda Sea","time":1786445392149,"updated":1786450277040,"tz":null,"url":"https://earthquake.usgs.gov/earthquakes/eventpage/us6000tjx1","detail":"https://earthquake.usgs.gov/fdsnws/event/1/query?eventid=us6000tjx1&format=geojson","felt":null,"cdi":null,"mmi":null,"alert":null,"status":"reviewed","tsunami":0,"sig":326,"net":"us","code":"6000tjx1","ids":",us6000tjx1,","sources":",us,","types":",origin,phase-data,","nst":84,"dmin":2.195,"rms":0.4,"gap":83,"magType":"mb","type":"earthquake","title":"M 4.6 - Banda Sea"},"geometry":{"type":"Point","coordinates":[129.7317,-6.7252,170.699]},"id":"us6000tjx1"},
{"type":"Feature","properties":{"mag":4.6,"place":"99 km SSE of Sand Point, Alaska","time":1786438164635,"updated":1786464389320,"tz":null,"url":"https://earthquake.usgs.gov/earthquakes/eventpage/us6000tjwh","detail":"https://earthquake.usgs.gov/fdsnws/event/1/query?eventid=us6000tjwh&format=geojson","felt":2,"cdi":3.8,"mmi":3.35,"alert":null,"status":"reviewed","tsunami":0,"sig":326,"net":"us","code":"6000tjwh","ids":",aka2026pusnfi,us6000tjwh,","sources":",ak,us,","types":",dyfi,origin,phase-data,shakemap,","nst":48,"dmin":1.527,"rms":0.98,"gap":168,"magType":"mb","type":"earthquake","title":"M 4.6 - 99 km SSE of Sand Point, Alaska"},"geometry":{"type":"Point","coordinates":[-159.9971,54.4899,36.925]},"id":"us6000tjwh"},
{"type":"Feature","properties":{"mag":4.6,"place":"40 km SSW of Sechura, Peru","time":1786435234362,"updated":1786438411040,"tz":null,"url":"https://earthquake.usgs.gov/earthquakes/eventpage/us6000tjwd","detail":"https://earthquake.usgs.gov/fdsnws/event/1/query?eventid=us6000tjwd&format=geojson","felt":null,"cdi":null,"mmi":null,"alert":null,"status":"reviewed","tsunami":0,"sig":326,"net":"us","code":"6000tjwd","ids":",us6000tjwd,","sources":",us,","types":",origin,phase-data,","nst":37,"dmin":2.49,"rms":0.74,"gap":154,"magType":"mb","type":"earthquake","title":"M 4.6 - 40 km SSW of Sechura, Peru"},"geometry":{"type":"Point","coordinates":[-81.0116,-5.8682,39.674]},"id":"us6000tjwd"},
{"type":"Feature","properties":{"mag":4.5,"place":"south of the Fiji Islands","time":1786417879919,"updated":1786419668040,"tz":null,"url":"https://earthquake.usgs.gov/earthquakes/eventpage/us6000tjvb","detail":"https://earthquake.usgs.gov/fdsnws/event/1/query?eventid=us6000tjvb&format=geojson","felt":null,"cdi":null,"mmi":null,"alert":null,"status":"reviewed","tsunami":0,"sig":312,"net":"us","code":"6000tjvb","ids":",us6000tjvb,","sources":",us,","types":",origin,phase-data,","nst":55,"dmin":6.168,"rms":0.58,"gap":79,"magType":"mb","type":"earthquake","title":"M 4.5 - south of the Fiji Islands"},"geometry":{"type":"Point","coordinates":[-179.7759,-23.5978,548.449]},"id":"us6000tjvb"},
{"type":"Feature","properties":{"mag":4.7,"place":"81 km SSE of Bengkulu, Indonesia","time":1786410766205,"updated":1786418721420,"tz":null,"url":"https://earthquake.usgs.gov/earthquakes/eventpage/us6000tjug","detail":"https://earthquake.usgs.gov/fdsnws/event/1/query?eventid=us6000tjug&format=geojson","felt":0,"cdi":1,"mmi":null,"alert":null,"status":"reviewed","tsunami":0,"sig":340,"net":"us","code":"6000tjug","ids":",us6000tjug,","sources":",us,","types":",dyfi,origin,phase-data,","nst":38,"dmin":0.42,"rms":0.64,"gap":188,"magType":"mb","type":"earthquake","title":"M 4.7 - 81 km SSE of Bengkulu, Indonesia"},"geometry":{"type":"Point","coordinates":[102.5519,-4.4801,61.94]},"id":"us6000tjug"}],"bbox":[-179.7759,-31.5799,10,153.1425,54.4899,548.449]}